{"type": "FeatureCollection", "features": [{"type": "Feature", "geometry": {"type": "Point", "coordinates": [121.48860503351102, 25.146061099058766]}, "properties": {"point_id": 413, "map_class": 3}}, {"type": "Feature", "geometry": {"type": "Point", "coordinates": [121.59056238762804, 24.982824448729335]}, "properties": {"point_id": 290, "map_class": 3}}, {"type": "Feature", "geometry": {"type": "Point", "coordinates": [121.53065696766569, 25.1217447683726]}, "properties": {"point_id": 77, "map_class": 2}}, {"type": "Feature", "geometry": {"type": "Point", "coordinates": [121.55857647810423, 25.083554862246963]}, "properties": {"point_id": 79, "map_class": 2}}, {"type": "Feature", "geometry": {"type": "Point", "coordinates": [121.55690143474254, 25.06575114783158]}, "properties": {"point_id": 183, "map_class": 2}}, {"type": "Feature", "geometry": {"type": "Point", "coordinates": [121.4987749372262, 25.125578570784292]}, "properties": {"point_id": 595, "map_class": 5}}, {"type": "Feature", "geometry": {"type": "Point", "coordinates": [121.49696082768253, 25.103619830087016]}, "properties": {"point_id": 11, "map_class": 1}}, {"type": "Feature", "geometry": {"type": "Point", "coordinates": [121.58229392009844, 25.06446085262619]}, "properties": {"point_id": 132, "map_class": 2}}, {"type": "Feature", "geometry": {"type": "Point", "coordinates": [121.5674039432509, 24.99795307260623]}, "properties": {"point_id": 444, "map_class": 3}}, {"type": "Feature", "geometry": {"type": "Point", "coordinates": [121.49484525365379, 25.01710048256593]}, "properties": {"point_id": 87, "map_class": 2}}, {"type": "Feature", "geometry": {"type": "Point", "coordinates": [121.48945417395686, 25.020386544466938]}, "properties": {"point_id": 71, "map_class": 1}}, {"type": "Feature", "geometry": {"type": "Point", "coordinates": [121.46556957754193, 25.11611931497617]}, "properties": {"point_id": 494, "map_class": 4}}, {"type": "Feature", "geometry": {"type": "Point", "coordinates": [121.50659176326587, 25.110759747849034]}, "properties": {"point_id": 515, "map_class": 4}}, {"type": "Feature", "geometry": {"type": "Point", "coordinates": [121.57699871769795, 25.14513097049615]}, "properties": {"point_id": 211, "map_class": 3}}, {"type": "Feature", "geometry": {"type": "Point", "coordinates": [121.49808165557005, 25.01171577548317]}, "properties": {"point_id": 56, "map_class": 1}}, {"type": "Feature", "geometry": {"type": "Point", "coordinates": [121.56754179101374, 25.113979642532705]}, "properties": {"point_id": 403, "map_class": 3}}, {"type": "Feature", "geometry": {"type": "Point", "coordinates": [121.57305774762446, 25.074485066928602]}, "properties": {"point_id": 31, "map_class": 1}}, {"type": "Feature", "geometry": {"type": "Point", "coordinates": [121.58403637060904, 25.033597442559238]}, "properties": {"point_id": 281, "map_class": 3}}, {"type": "Feature", "geometry": {"type": "Point", "coordinates": [121.47416751391857, 25.12650099621081]}, "properties": {"point_id": 110, "map_class": 2}}, {"type": "Feature", "geometry": {"type": "Point", "coordinates": [121.59884749898413, 25.073286106766073]}, "properties": {"point_id": 594, "map_class": 5}}, {"type": "Feature", "geometry": {"type": "Point", "coordinates": [121.52943581102193, 25.04137389408119]}, "properties": {"point_id": 3, "map_class": 1}}, {"type": "Feature", "geometry": {"type": "Point", "coordinates": [121.53717670993146, 25.065558089386304]}, "properties": {"point_id": 185, "map_class": 2}}, {"type": "Feature", "geometry": {"type": "Point", "coordinates": [121.5733769465311, 25.02979349199092]}, "properties": {"point_id": 601, "map_class": 5}}, {"type": "Feature", "geometry": {"type": "Point", "coordinates": [121.56078910573724, 25.080867594892023]}, "properties": {"point_id": 205, "map_class": 2}}, {"type": "Feature", "geometry": {"type": "Point", "coordinates": [121.57141239049461, 25.071038144965776]}, "properties": {"point_id": 193, "map_class": 2}}, {"type": "Feature", "geometry": {"type": "Point", "coordinates": [121.55642274405191, 25.106558201775638]}, "properties": {"point_id": 138, "map_class": 2}}, {"type": "Feature", "geometry": {"type": "Point", "coordinates": [121.58455639828838, 24.97093901337681]}, "properties": {"point_id": 320, "map_class": 3}}, {"type": "Feature", "geometry": {"type": "Point", "coordinates": [121.5510131700344, 25.111200567359866]}, "properties": {"point_id": 261, "map_class": 3}}, {"type": "Feature", "geometry": {"type": "Point", "coordinates": [121.56995962793947, 25.076622251458875]}, "properties": {"point_id": 578, "map_class": 5}}, {"type": "Feature", "geometry": {"type": "Point", "coordinates": [121.57526783874103, 25.114776430396514]}, "properties": {"point_id": 442, "map_class": 3}}, {"type": "Feature", "geometry": {"type": "Point", "coordinates": [121.5328208694749, 25.065063647614963]}, "properties": {"point_id": 73, "map_class": 1}}, {"type": "Feature", "geometry": {"type": "Point", "coordinates": [121.5562103052477, 25.014729500095342]}, "properties": {"point_id": 332, "map_class": 3}}, {"type": "Feature", "geometry": {"type": "Point", "coordinates": [121.53139775539917, 25.084642694943295]}, "properties": {"point_id": 447, "map_class": 3}}, {"type": "Feature", "geometry": {"type": "Point", "coordinates": [121.5712640239058, 25.075280436937035]}, "properties": {"point_id": 520, "map_class": 4}}, {"type": "Feature", "geometry": {"type": "Point", "coordinates": [121.58480137773779, 25.105025941213697]}, "properties": {"point_id": 212, "map_class": 3}}, {"type": "Feature", "geometry": {"type": "Point", "coordinates": [121.58513904020094, 24.989274097770515]}, "properties": {"point_id": 576, "map_class": 5}}, {"type": "Feature", "geometry": {"type": "Point", "coordinates": [121.52675937498854, 25.016517275403356]}, "properties": {"point_id": 597, "map_class": 5}}, {"type": "Feature", "geometry": {"type": "Point", "coordinates": [121.5808331942152, 25.105168599158432]}, "properties": {"point_id": 363, "map_class": 3}}, {"type": "Feature", "geometry": {"type": "Point", "coordinates": [121.52224911202988, 25.169334203134465]}, "properties": {"point_id": 245, "map_class": 3}}, {"type": "Feature", "geometry": {"type": "Point", "coordinates": [121.59272119793621, 25.10618482188731]}, "properties": {"point_id": 302, "map_class": 3}}, {"type": "Feature", "geometry": {"type": "Point", "coordinates": [121.52205813081264, 25.078049032724813]}, "properties": {"point_id": 570, "map_class": 5}}, {"type": "Feature", "geometry": {"type": "Point", "coordinates": [121.4778959167911, 25.121754028928244]}, "properties": {"point_id": 468, "map_class": 4}}, {"type": "Feature", "geometry": {"type": "Point", "coordinates": [121.49179848056419, 25.03937131981343]}, "properties": {"point_id": 30, "map_class": 1}}, {"type": "Feature", "geometry": {"type": "Point", "coordinates": [121.59079844245532, 25.08359352072141]}, "properties": {"point_id": 575, "map_class": 5}}, {"type": "Feature", "geometry": {"type": "Point", "coordinates": [121.51303512824248, 25.127347563961848]}, "properties": {"point_id": 528, "map_class": 4}}, {"type": "Feature", "geometry": {"type": "Point", "coordinates": [121.53822030977585, 25.04444021111612]}, "properties": {"point_id": 25, "map_class": 1}}, {"type": "Feature", "geometry": {"type": "Point", "coordinates": [121.57660995915323, 25.178625209831573]}, "properties": {"point_id": 209, "map_class": 3}}, {"type": "Feature", "geometry": {"type": "Point", "coordinates": [121.51463423596662, 25.04420622807297]}, "properties": {"point_id": 82, "map_class": 2}}, {"type": "Feature", "geometry": {"type": "Point", "coordinates": [121.4964427690195, 25.04050188092281]}, "properties": {"point_id": 389, "map_class": 3}}, {"type": "Feature", "geometry": {"type": "Point", "coordinates": [121.55374639853525, 25.16540169196738]}, "properties": {"point_id": 397, "map_class": 3}}, {"type": "Feature", "geometry": {"type": "Point", "coordinates": [121.54608670393709, 25.049754326906704]}, "properties": {"point_id": 540, "map_class": 5}}, {"type": "Feature", "geometry": {"type": "Point", "coordinates": [121.4740175431921, 25.106635899315904]}, "properties": {"point_id": 177, "map_class": 2}}, {"type": "Feature", "geometry": {"type": "Point", "coordinates": [121.57500616709417, 25.0174390409025]}, "properties": {"point_id": 542, "map_class": 5}}, {"type": "Feature", "geometry": {"type": "Point", "coordinates": [121.543963429265, 25.078446165739663]}, "properties": {"point_id": 565, "map_class": 5}}, {"type": "Feature", "geometry": {"type": "Point", "coordinates": [121.46826837091531, 25.130322545053655]}, "properties": {"point_id": 376, "map_class": 3}}, {"type": "Feature", "geometry": {"type": "Point", "coordinates": [121.4649553507552, 25.125593256350832]}, "properties": {"point_id": 362, "map_class": 3}}, {"type": "Feature", "geometry": {"type": "Point", "coordinates": [121.57110578283225, 25.003406244618095]}, "properties": {"point_id": 159, "map_class": 2}}, {"type": "Feature", "geometry": {"type": "Point", "coordinates": [121.58283508926421, 25.00875546978375]}, "properties": {"point_id": 260, "map_class": 3}}, {"type": "Feature", "geometry": {"type": "Point", "coordinates": [121.53735656065803, 25.016983083818815]}, "properties": {"point_id": 239, "map_class": 3}}, {"type": "Feature", "geometry": {"type": "Point", "coordinates": [121.5936078707943, 25.05463627687273]}, "properties": {"point_id": 146, "map_class": 2}}, {"type": "Feature", "geometry": {"type": "Point", "coordinates": [121.53527912229379, 25.1499610879566]}, "properties": {"point_id": 517, "map_class": 4}}, {"type": "Feature", "geometry": {"type": "Point", "coordinates": [121.574974451964, 25.08019187682418]}, "properties": {"point_id": 197, "map_class": 2}}, {"type": "Feature", "geometry": {"type": "Point", "coordinates": [121.50826912801467, 25.1196250361663]}, "properties": {"point_id": 78, "map_class": 2}}, {"type": "Feature", "geometry": {"type": "Point", "coordinates": [121.46909965739076, 25.111370510767546]}, "properties": {"point_id": 64, "map_class": 1}}, {"type": "Feature", "geometry": {"type": "Point", "coordinates": [121.53639985368534, 25.06419606542321]}, "properties": {"point_id": 166, "map_class": 2}}, {"type": "Feature", "geometry": {"type": "Point", "coordinates": [121.48864121267249, 25.127010480297564]}, "properties": {"point_id": 541, "map_class": 5}}, {"type": "Feature", "geometry": {"type": "Point", "coordinates": [121.56125744241811, 25.057757460125817]}, "properties": {"point_id": 111, "map_class": 2}}, {"type": "Feature", "geometry": {"type": "Point", "coordinates": [121.52663201911075, 25.143103561814577]}, "properties": {"point_id": 566, "map_class": 5}}, {"type": "Feature", "geometry": {"type": "Point", "coordinates": [121.47588682205435, 25.10782888355543]}, "properties": {"point_id": 496, "map_class": 4}}, {"type": "Feature", "geometry": {"type": "Point", "coordinates": [121.54189367734281, 25.035537452769734]}, "properties": {"point_id": 83, "map_class": 2}}, {"type": "Feature", "geometry": {"type": "Point", "coordinates": [121.56744026613765, 25.165173693018364]}, "properties": {"point_id": 278, "map_class": 3}}, {"type": "Feature", "geometry": {"type": "Point", "coordinates": [121.51619296120006, 25.145076014519386]}, "properties": {"point_id": 306, "map_class": 3}}, {"type": "Feature", "geometry": {"type": "Point", "coordinates": [121.49779371784491, 25.100377841752774]}, "properties": {"point_id": 7, "map_class": 1}}, {"type": "Feature", "geometry": {"type": "Point", "coordinates": [121.54010623257234, 25.019086822343233]}, "properties": {"point_id": 119, "map_class": 2}}, {"type": "Feature", "geometry": {"type": "Point", "coordinates": [121.5114069116724, 25.10620338634798]}, "properties": {"point_id": 156, "map_class": 2}}, {"type": "Feature", "geometry": {"type": "Point", "coordinates": [121.57400026153957, 24.967226539179002]}, "properties": {"point_id": 232, "map_class": 3}}, {"type": "Feature", "geometry": {"type": "Point", "coordinates": [121.58260595998713, 25.04595388865886]}, "properties": {"point_id": 189, "map_class": 2}}, {"type": "Feature", "geometry": {"type": "Point", "coordinates": [121.56388653566837, 24.968122544520735]}, "properties": {"point_id": 287, "map_class": 3}}, {"type": "Feature", "geometry": {"type": "Point", "coordinates": [121.51895608058874, 25.08867237826145]}, "properties": {"point_id": 105, "map_class": 2}}, {"type": "Feature", "geometry": {"type": "Point", "coordinates": [121.54957992958009, 25.089787573228577]}, "properties": {"point_id": 275, "map_class": 3}}, {"type": "Feature", "geometry": {"type": "Point", "coordinates": [121.54324588965163, 25.030133217414864]}, "properties": {"point_id": 102, "map_class": 2}}, {"type": "Feature", "geometry": {"type": "Point", "coordinates": [121.58141284875535, 25.080705028279507]}, "properties": {"point_id": 464, "map_class": 4}}, {"type": "Feature", "geometry": {"type": "Point", "coordinates": [121.61850958750242, 25.043854236593038]}, "properties": {"point_id": 136, "map_class": 2}}, {"type": "Feature", "geometry": {"type": "Point", "coordinates": [121.54251574191605, 25.108589130642628]}, "properties": {"point_id": 440, "map_class": 3}}, {"type": "Feature", "geometry": {"type": "Point", "coordinates": [121.55888533090895, 25.200845628828066]}, "properties": {"point_id": 368, "map_class": 3}}, {"type": "Feature", "geometry": {"type": "Point", "coordinates": [121.57555804134387, 25.038301906999287]}, "properties": {"point_id": 74, "map_class": 1}}, {"type": "Feature", "geometry": {"type": "Point", "coordinates": [121.56908727899182, 24.98948175595179]}, "properties": {"point_id": 40, "map_class": 1}}, {"type": "Feature", "geometry": {"type": "Point", "coordinates": [121.6252834884953, 25.03190802276087]}, "properties": {"point_id": 317, "map_class": 3}}, {"type": "Feature", "geometry": {"type": "Point", "coordinates": [121.60861789012456, 25.02452944121589]}, "properties": {"point_id": 288, "map_class": 3}}, {"type": "Feature", "geometry": {"type": "Point", "coordinates": [121.59216357161603, 25.094260966909722]}, "properties": {"point_id": 262, "map_class": 3}}, {"type": "Feature", "geometry": {"type": "Point", "coordinates": [121.54952006965993, 25.044370398812845]}, "properties": {"point_id": 178, "map_class": 2}}, {"type": "Feature", "geometry": {"type": "Point", "coordinates": [121.52819091861583, 25.08750021853903]}, "properties": {"point_id": 473, "map_class": 4}}, {"type": "Feature", "geometry": {"type": "Point", "coordinates": [121.47679483409412, 25.106574168114243]}, "properties": {"point_id": 478, "map_class": 4}}, {"type": "Feature", "geometry": {"type": "Point", "coordinates": [121.54719162087683, 25.040103935901552]}, "properties": {"point_id": 61, "map_class": 1}}, {"type": "Feature", "geometry": {"type": "Point", "coordinates": [121.56680485716565, 25.18557322584594]}, "properties": {"point_id": 319, "map_class": 3}}, {"type": "Feature", "geometry": {"type": "Point", "coordinates": [121.50767264124815, 25.09524076421989]}, "properties": {"point_id": 495, "map_class": 4}}, {"type": "Feature", "geometry": {"type": "Point", "coordinates": [121.54576193110927, 25.194487148637357]}, "properties": {"point_id": 282, "map_class": 3}}, {"type": "Feature", "geometry": {"type": "Point", "coordinates": [121.49044360668798, 25.141745978319502]}, "properties": {"point_id": 593, "map_class": 5}}, {"type": "Feature", "geometry": {"type": "Point", "coordinates": [121.49740028736606, 25.108229054720383]}, "properties": {"point_id": 12, "map_class": 1}}, {"type": "Feature", "geometry": {"type": "Point", "coordinates": [121.58792692399179, 25.07462728559284]}, "properties": {"point_id": 602, "map_class": 5}}, {"type": "Feature", "geometry": {"type": "Point", "coordinates": [121.53884836036131, 25.075055119837675]}, "properties": {"point_id": 84, "map_class": 2}}, {"type": "Feature", "geometry": {"type": "Point", "coordinates": [121.4924208742524, 25.028994252359784]}, "properties": {"point_id": 91, "map_class": 2}}, {"type": "Feature", "geometry": {"type": "Point", "coordinates": [121.53868588207561, 25.14710545799883]}, "properties": {"point_id": 210, "map_class": 3}}, {"type": "Feature", "geometry": {"type": "Point", "coordinates": [121.50601621849347, 25.125471172394942]}, "properties": {"point_id": 311, "map_class": 3}}, {"type": "Feature", "geometry": {"type": "Point", "coordinates": [121.49049170287806, 25.14589976291553]}, "properties": {"point_id": 361, "map_class": 3}}, {"type": "Feature", "geometry": {"type": "Point", "coordinates": [121.57455453280454, 25.039375790851796]}, "properties": {"point_id": 80, "map_class": 2}}, {"type": "Feature", "geometry": {"type": "Point", "coordinates": [121.54143039718838, 25.14153451207404]}, "properties": {"point_id": 292, "map_class": 3}}, {"type": "Feature", "geometry": {"type": "Point", "coordinates": [121.50610107396123, 25.1021772685408]}, "properties": {"point_id": 533, "map_class": 5}}, {"type": "Feature", "geometry": {"type": "Point", "coordinates": [121.58440294874322, 25.070711147750604]}, "properties": {"point_id": 291, "map_class": 3}}, {"type": "Feature", "geometry": {"type": "Point", "coordinates": [121.59106191914005, 25.05190336366656]}, "properties": {"point_id": 182, "map_class": 2}}, {"type": "Feature", "geometry": {"type": "Point", "coordinates": [121.55905927145885, 24.999858901759172]}, "properties": {"point_id": 554, "map_class": 5}}, {"type": "Feature", "geometry": {"type": "Point", "coordinates": [121.62278392587703, 25.033871338172908]}, "properties": {"point_id": 248, "map_class": 3}}, {"type": "Feature", "geometry": {"type": "Point", "coordinates": [121.57247428123748, 25.047843291229622]}, "properties": {"point_id": 149, "map_class": 2}}, {"type": "Feature", "geometry": {"type": "Point", "coordinates": [121.4736050615473, 25.123876829387957]}, "properties": {"point_id": 551, "map_class": 5}}, {"type": "Feature", "geometry": {"type": "Point", "coordinates": [121.55222561737466, 25.117713361661483]}, "properties": {"point_id": 164, "map_class": 2}}, {"type": "Feature", "geometry": {"type": "Point", "coordinates": [121.51752818067524, 25.124864464517294]}, "properties": {"point_id": 375, "map_class": 3}}, {"type": "Feature", "geometry": {"type": "Point", "coordinates": [121.59997364506498, 25.122415774683613]}, "properties": {"point_id": 269, "map_class": 3}}, {"type": "Feature", "geometry": {"type": "Point", "coordinates": [121.59465904556083, 24.988461390761127]}, "properties": {"point_id": 250, "map_class": 3}}, {"type": "Feature", "geometry": {"type": "Point", "coordinates": [121.59799661661928, 24.98244320770665]}, "properties": {"point_id": 365, "map_class": 3}}, {"type": "Feature", "geometry": {"type": "Point", "coordinates": [121.54969869922398, 25.01231852741927]}, "properties": {"point_id": 452, "map_class": 3}}, {"type": "Feature", "geometry": {"type": "Point", "coordinates": [121.46836078214089, 25.13086523174228]}, "properties": {"point_id": 465, "map_class": 4}}, {"type": "Feature", "geometry": {"type": "Point", "coordinates": [121.5310089454433, 25.142063555400195]}, "properties": {"point_id": 236, "map_class": 3}}, {"type": "Feature", "geometry": {"type": "Point", "coordinates": [121.52793045026078, 25.07612100572797]}, "properties": {"point_id": 10, "map_class": 1}}, {"type": "Feature", "geometry": {"type": "Point", "coordinates": [121.5866439569171, 25.151724310209428]}, "properties": {"point_id": 228, "map_class": 3}}, {"type": "Feature", "geometry": {"type": "Point", "coordinates": [121.58470170346843, 25.018795763547914]}, "properties": {"point_id": 354, "map_class": 3}}, {"type": "Feature", "geometry": {"type": "Point", "coordinates": [121.48570983364979, 25.147566435067635]}, "properties": {"point_id": 430, "map_class": 3}}, {"type": "Feature", "geometry": {"type": "Point", "coordinates": [121.4976242215236, 25.138568572919063]}, "properties": {"point_id": 133, "map_class": 2}}, {"type": "Feature", "geometry": {"type": "Point", "coordinates": [121.58184919156591, 25.128834740485296]}, "properties": {"point_id": 355, "map_class": 3}}, {"type": "Feature", "geometry": {"type": "Point", "coordinates": [121.5490993192407, 25.105312937727028]}, "properties": {"point_id": 300, "map_class": 3}}, {"type": "Feature", "geometry": {"type": "Point", "coordinates": [121.5346404625226, 25.03709133987876]}, "properties": {"point_id": 592, "map_class": 5}}, {"type": "Feature", "geometry": {"type": "Point", "coordinates": [121.54401855024433, 25.09054571258362]}, "properties": {"point_id": 235, "map_class": 3}}, {"type": "Feature", "geometry": {"type": "Point", "coordinates": [121.50716672468508, 25.047020664996563]}, "properties": {"point_id": 85, "map_class": 2}}, {"type": "Feature", "geometry": {"type": "Point", "coordinates": [121.54742066119513, 25.03748771636622]}, "properties": {"point_id": 196, "map_class": 2}}, {"type": "Feature", "geometry": {"type": "Point", "coordinates": [121.5869637555342, 25.158408923956298]}, "properties": {"point_id": 522, "map_class": 4}}, {"type": "Feature", "geometry": {"type": "Point", "coordinates": [121.5261268543623, 25.11908137059661]}, "properties": {"point_id": 141, "map_class": 2}}, {"type": "Feature", "geometry": {"type": "Point", "coordinates": [121.53125547871254, 25.09655965750955]}, "properties": {"point_id": 458, "map_class": 4}}, {"type": "Feature", "geometry": {"type": "Point", "coordinates": [121.55828357717172, 25.20138150376004]}, "properties": {"point_id": 369, "map_class": 3}}, {"type": "Feature", "geometry": {"type": "Point", "coordinates": [121.498179014575, 25.117536770042356]}, "properties": {"point_id": 76, "map_class": 2}}, {"type": "Feature", "geometry": {"type": "Point", "coordinates": [121.52835070181432, 25.074138776428782]}, "properties": {"point_id": 93, "map_class": 2}}, {"type": "Feature", "geometry": {"type": "Point", "coordinates": [121.64198526340978, 25.027185711644474]}, "properties": {"point_id": 345, "map_class": 3}}, {"type": "Feature", "geometry": {"type": "Point", "coordinates": [121.55978633085697, 25.073363664287776]}, "properties": {"point_id": 69, "map_class": 1}}, {"type": "Feature", "geometry": {"type": "Point", "coordinates": [121.58790624989891, 25.033182805895855]}, "properties": {"point_id": 16, "map_class": 1}}, {"type": "Feature", "geometry": {"type": "Point", "coordinates": [121.57775641362811, 25.079676815101895]}, "properties": {"point_id": 154, "map_class": 2}}, {"type": "Feature", "geometry": {"type": "Point", "coordinates": [121.58927916247517, 25.120959986747614]}, "properties": {"point_id": 333, "map_class": 3}}, {"type": "Feature", "geometry": {"type": "Point", "coordinates": [121.52082233882972, 25.03234956557479]}, "properties": {"point_id": 89, "map_class": 2}}, {"type": "Feature", "geometry": {"type": "Point", "coordinates": [121.54328043001327, 25.069139469759882]}, "properties": {"point_id": 503, "map_class": 4}}, {"type": "Feature", "geometry": {"type": "Point", "coordinates": [121.53486462768541, 25.101561342357595]}, "properties": {"point_id": 118, "map_class": 2}}, {"type": "Feature", "geometry": {"type": "Point", "coordinates": [121.48598042540283, 25.125628981830705]}, "properties": {"point_id": 544, "map_class": 5}}, {"type": "Feature", "geometry": {"type": "Point", "coordinates": [121.58488872946094, 25.080196464502293]}, "properties": {"point_id": 410, "map_class": 3}}, {"type": "Feature", "geometry": {"type": "Point", "coordinates": [121.57703618417766, 25.039038411442117]}, "properties": {"point_id": 34, "map_class": 1}}, {"type": "Feature", "geometry": {"type": "Point", "coordinates": [121.56190461139226, 24.993746547118338]}, "properties": {"point_id": 1, "map_class": 1}}, {"type": "Feature", "geometry": {"type": "Point", "coordinates": [121.57217272625554, 24.979669467440573]}, "properties": {"point_id": 599, "map_class": 5}}, {"type": "Feature", "geometry": {"type": "Point", "coordinates": [121.56060628678235, 24.99463691575461]}, "properties": {"point_id": 543, "map_class": 5}}, {"type": "Feature", "geometry": {"type": "Point", "coordinates": [121.49958199403791, 25.156917124853756]}, "properties": {"point_id": 435, "map_class": 3}}, {"type": "Feature", "geometry": {"type": "Point", "coordinates": [121.5741055806101, 25.146547803974688]}, "properties": {"point_id": 335, "map_class": 3}}, {"type": "Feature", "geometry": {"type": "Point", "coordinates": [121.56770839495293, 24.971680790528957]}, "properties": {"point_id": 297, "map_class": 3}}, {"type": "Feature", "geometry": {"type": "Point", "coordinates": [121.56240470993612, 25.010365200858132]}, "properties": {"point_id": 246, "map_class": 3}}, {"type": "Feature", "geometry": {"type": "Point", "coordinates": [121.49700147439138, 25.108405591510493]}, "properties": {"point_id": 23, "map_class": 1}}, {"type": "Feature", "geometry": {"type": "Point", "coordinates": [121.58347177773794, 25.082711124481012]}, "properties": {"point_id": 446, "map_class": 3}}, {"type": "Feature", "geometry": {"type": "Point", "coordinates": [121.52868476089708, 25.071072200489795]}, "properties": {"point_id": 117, "map_class": 2}}, {"type": "Feature", "geometry": {"type": "Point", "coordinates": [121.50165954553631, 25.124885449091938]}, "properties": {"point_id": 90, "map_class": 2}}, {"type": "Feature", "geometry": {"type": "Point", "coordinates": [121.58603532118019, 25.092577417493764]}, "properties": {"point_id": 353, "map_class": 3}}, {"type": "Feature", "geometry": {"type": "Point", "coordinates": [121.55104646045913, 25.125195980166517]}, "properties": {"point_id": 213, "map_class": 3}}, {"type": "Feature", "geometry": {"type": "Point", "coordinates": [121.54741910948978, 25.07965381877973]}, "properties": {"point_id": 19, "map_class": 1}}, {"type": "Feature", "geometry": {"type": "Point", "coordinates": [121.47382401916626, 25.130199297089803]}, "properties": {"point_id": 500, "map_class": 4}}, {"type": "Feature", "geometry": {"type": "Point", "coordinates": [121.60391781055908, 25.01951923481552]}, "properties": {"point_id": 323, "map_class": 3}}, {"type": "Feature", "geometry": {"type": "Point", "coordinates": [121.56469421547078, 25.077564628014958]}, "properties": {"point_id": 145, "map_class": 2}}, {"type": "Feature", "geometry": {"type": "Point", "coordinates": [121.56933758853953, 25.01919044540276]}, "properties": {"point_id": 285, "map_class": 3}}, {"type": "Feature", "geometry": {"type": "Point", "coordinates": [121.6279212274826, 25.026424478221394]}, "properties": {"point_id": 276, "map_class": 3}}, {"type": "Feature", "geometry": {"type": "Point", "coordinates": [121.56061001751418, 25.062265775168658]}, "properties": {"point_id": 546, "map_class": 5}}, {"type": "Feature", "geometry": {"type": "Point", "coordinates": [121.60099932547196, 25.02346469974988]}, "properties": {"point_id": 364, "map_class": 3}}, {"type": "Feature", "geometry": {"type": "Point", "coordinates": [121.58384025376454, 25.033414988178997]}, "properties": {"point_id": 342, "map_class": 3}}, {"type": "Feature", "geometry": {"type": "Point", "coordinates": [121.55966410353588, 25.109208169572376]}, "properties": {"point_id": 562, "map_class": 5}}, {"type": "Feature", "geometry": {"type": "Point", "coordinates": [121.58577837248147, 25.089053576820007]}, "properties": {"point_id": 560, "map_class": 5}}, {"type": "Feature", "geometry": {"type": "Point", "coordinates": [121.56101431623182, 25.002135141380535]}, "properties": {"point_id": 405, "map_class": 3}}, {"type": "Feature", "geometry": {"type": "Point", "coordinates": [121.51172445366727, 25.120923830349827]}, "properties": {"point_id": 168, "map_class": 2}}, {"type": "Feature", "geometry": {"type": "Point", "coordinates": [121.571500237648, 25.03781148452104]}, "properties": {"point_id": 55, "map_class": 1}}, {"type": "Feature", "geometry": {"type": "Point", "coordinates": [121.62971570667882, 25.034386893556064]}, "properties": {"point_id": 434, "map_class": 3}}, {"type": "Feature", "geometry": {"type": "Point", "coordinates": [121.46612733765538, 25.111159209570964]}, "properties": {"point_id": 47, "map_class": 1}}, {"type": "Feature", "geometry": {"type": "Point", "coordinates": [121.5771532728368, 25.0803933689482]}, "properties": {"point_id": 94, "map_class": 2}}, {"type": "Feature", "geometry": {"type": "Point", "coordinates": [121.59561629526539, 25.017544881432606]}, "properties": {"point_id": 266, "map_class": 3}}, {"type": "Feature", "geometry": {"type": "Point", "coordinates": [121.49205707648737, 25.139595475143995]}, "properties": {"point_id": 109, "map_class": 2}}, {"type": "Feature", "geometry": {"type": "Point", "coordinates": [121.57337443986235, 25.166765950468978]}, "properties": {"point_id": 564, "map_class": 5}}, {"type": "Feature", "geometry": {"type": "Point", "coordinates": [121.51970639609422, 25.116940714934337]}, "properties": {"point_id": 605, "map_class": 5}}, {"type": "Feature", "geometry": {"type": "Point", "coordinates": [121.54680104014292, 25.01436694914457]}, "properties": {"point_id": 571, "map_class": 5}}, {"type": "Feature", "geometry": {"type": "Point", "coordinates": [121.60816978236923, 25.090529442276342]}, "properties": {"point_id": 445, "map_class": 3}}, {"type": "Feature", "geometry": {"type": "Point", "coordinates": [121.56291116389203, 25.153753160463005]}, "properties": {"point_id": 305, "map_class": 3}}, {"type": "Feature", "geometry": {"type": "Point", "coordinates": [121.5884791494129, 24.983075583038474]}, "properties": {"point_id": 384, "map_class": 3}}, {"type": "Feature", "geometry": {"type": "Point", "coordinates": [121.52776485059873, 25.16442323785154]}, "properties": {"point_id": 219, "map_class": 3}}, {"type": "Feature", "geometry": {"type": "Point", "coordinates": [121.4901641647311, 25.148334226158703]}, "properties": {"point_id": 399, "map_class": 3}}, {"type": "Feature", "geometry": {"type": "Point", "coordinates": [121.51103115280037, 25.1617277581671]}, "properties": {"point_id": 347, "map_class": 3}}, {"type": "Feature", "geometry": {"type": "Point", "coordinates": [121.56404714505021, 25.175343656056583]}, "properties": {"point_id": 258, "map_class": 3}}, {"type": "Feature", "geometry": {"type": "Point", "coordinates": [121.49038344271271, 25.017326110776988]}, "properties": {"point_id": 545, "map_class": 5}}, {"type": "Feature", "geometry": {"type": "Point", "coordinates": [121.50483885710985, 25.08365510377253]}, "properties": {"point_id": 70, "map_class": 1}}, {"type": "Feature", "geometry": {"type": "Point", "coordinates": [121.66144173759459, 25.02420190911064]}, "properties": {"point_id": 272, "map_class": 3}}, {"type": "Feature", "geometry": {"type": "Point", "coordinates": [121.53782246865624, 25.15296579791614]}, "properties": {"point_id": 408, "map_class": 3}}, {"type": "Feature", "geometry": {"type": "Point", "coordinates": [121.5783687082864, 25.018012991537415]}, "properties": {"point_id": 372, "map_class": 3}}, {"type": "Feature", "geometry": {"type": "Point", "coordinates": [121.56603783853558, 24.979068724688396]}, "properties": {"point_id": 590, "map_class": 5}}, {"type": "Feature", "geometry": {"type": "Point", "coordinates": [121.49580736104772, 25.13304249126188]}, "properties": {"point_id": 200, "map_class": 2}}, {"type": "Feature", "geometry": {"type": "Point", "coordinates": [121.50487247363381, 25.023702607586273]}, "properties": {"point_id": 486, "map_class": 4}}, {"type": "Feature", "geometry": {"type": "Point", "coordinates": [121.61318140733341, 25.059335020679494]}, "properties": {"point_id": 150, "map_class": 2}}, {"type": "Feature", "geometry": {"type": "Point", "coordinates": [121.53755858247206, 25.02502102766462]}, "properties": {"point_id": 125, "map_class": 2}}, {"type": "Feature", "geometry": {"type": "Point", "coordinates": [121.5180055065588, 25.134620547716434]}, "properties": {"point_id": 433, "map_class": 3}}, {"type": "Feature", "geometry": {"type": "Point", "coordinates": [121.54708759213588, 25.074142806594516]}, "properties": {"point_id": 471, "map_class": 4}}, {"type": "Feature", "geometry": {"type": "Point", "coordinates": [121.51793893058222, 25.033133453199653]}, "properties": {"point_id": 186, "map_class": 2}}, {"type": "Feature", "geometry": {"type": "Point", "coordinates": [121.59195391404313, 25.095252190905086]}, "properties": {"point_id": 229, "map_class": 3}}, {"type": "Feature", "geometry": {"type": "Point", "coordinates": [121.503446327664, 25.10847078568109]}, "properties": {"point_id": 519, "map_class": 4}}, {"type": "Feature", "geometry": {"type": "Point", "coordinates": [121.56520719617725, 25.101587147615806]}, "properties": {"point_id": 249, "map_class": 3}}, {"type": "Feature", "geometry": {"type": "Point", "coordinates": [121.54007433211366, 25.17212951815053]}, "properties": {"point_id": 265, "map_class": 3}}, {"type": "Feature", "geometry": {"type": "Point", "coordinates": [121.57660502166301, 25.110635862561356]}, "properties": {"point_id": 251, "map_class": 3}}, {"type": "Feature", "geometry": {"type": "Point", "coordinates": [121.60278328849128, 25.13697931071209]}, "properties": {"point_id": 588, "map_class": 5}}, {"type": "Feature", "geometry": {"type": "Point", "coordinates": [121.54872441436207, 25.17058937392392]}, "properties": {"point_id": 370, "map_class": 3}}, {"type": "Feature", "geometry": {"type": "Point", "coordinates": [121.5237156391457, 25.072106347435867]}, "properties": {"point_id": 557, "map_class": 5}}, {"type": "Feature", "geometry": {"type": "Point", "coordinates": [121.48167744045374, 25.120709349810276]}, "properties": {"point_id": 582, "map_class": 5}}, {"type": "Feature", "geometry": {"type": "Point", "coordinates": [121.55655528258039, 25.044529222012766]}, "properties": {"point_id": 115, "map_class": 2}}, {"type": "Feature", "geometry": {"type": "Point", "coordinates": [121.48621904103855, 25.138452461611376]}, "properties": {"point_id": 204, "map_class": 2}}, {"type": "Feature", "geometry": {"type": "Point", "coordinates": [121.5582011074472, 25.039398565758606]}, "properties": {"point_id": 142, "map_class": 2}}, {"type": "Feature", "geometry": {"type": "Point", "coordinates": [121.60264367838255, 25.044518472142258]}, "properties": {"point_id": 341, "map_class": 3}}, {"type": "Feature", "geometry": {"type": "Point", "coordinates": [121.57122430406314, 25.053068218227562]}, "properties": {"point_id": 8, "map_class": 1}}, {"type": "Feature", "geometry": {"type": "Point", "coordinates": [121.53269902429939, 25.158332516003785]}, "properties": {"point_id": 526, "map_class": 4}}, {"type": "Feature", "geometry": {"type": "Point", "coordinates": [121.53719766901729, 25.055445683107056]}, "properties": {"point_id": 20, "map_class": 1}}, {"type": "Feature", "geometry": {"type": "Point", "coordinates": [121.50943985021854, 25.113045657285728]}, "properties": {"point_id": 173, "map_class": 2}}, {"type": "Feature", "geometry": {"type": "Point", "coordinates": [121.48184452113115, 25.123239154077837]}, "properties": {"point_id": 457, "map_class": 4}}, {"type": "Feature", "geometry": {"type": "Point", "coordinates": [121.4629490177469, 25.103632330361126]}, "properties": {"point_id": 57, "map_class": 1}}, {"type": "Feature", "geometry": {"type": "Point", "coordinates": [121.5664892439198, 25.187105106389534]}, "properties": {"point_id": 303, "map_class": 3}}, {"type": "Feature", "geometry": {"type": "Point", "coordinates": [121.54291381275844, 25.141910273578883]}, "properties": {"point_id": 339, "map_class": 3}}, {"type": "Feature", "geometry": {"type": "Point", "coordinates": [121.61080645404064, 25.032586027154924]}, "properties": {"point_id": 539, "map_class": 5}}, {"type": "Feature", "geometry": {"type": "Point", "coordinates": [121.57521549442298, 25.11929050306288]}, "properties": {"point_id": 371, "map_class": 3}}, {"type": "Feature", "geometry": {"type": "Point", "coordinates": [121.49369252150923, 25.119477610665133]}, "properties": {"point_id": 313, "map_class": 3}}, {"type": "Feature", "geometry": {"type": "Point", "coordinates": [121.59559070880547, 25.071991229547077]}, "properties": {"point_id": 50, "map_class": 1}}, {"type": "Feature", "geometry": {"type": "Point", "coordinates": [121.59205690284757, 25.034215414379698]}, "properties": {"point_id": 404, "map_class": 3}}, {"type": "Feature", "geometry": {"type": "Point", "coordinates": [121.57537434342863, 25.06276935302874]}, "properties": {"point_id": 26, "map_class": 1}}, {"type": "Feature", "geometry": {"type": "Point", "coordinates": [121.52117521282062, 25.159662491100537]}, "properties": {"point_id": 448, "map_class": 3}}, {"type": "Feature", "geometry": {"type": "Point", "coordinates": [121.52567122332891, 25.17352165479611]}, "properties": {"point_id": 221, "map_class": 3}}, {"type": "Feature", "geometry": {"type": "Point", "coordinates": [121.55233156872102, 25.133966746350712]}, "properties": {"point_id": 350, "map_class": 3}}, {"type": "Feature", "geometry": {"type": "Point", "coordinates": [121.61026929994901, 25.097772538129853]}, "properties": {"point_id": 299, "map_class": 3}}, {"type": "Feature", "geometry": {"type": "Point", "coordinates": [121.52938299988692, 25.06241119292561]}, "properties": {"point_id": 43, "map_class": 1}}, {"type": "Feature", "geometry": {"type": "Point", "coordinates": [121.55923527884289, 25.095028272078757]}, "properties": {"point_id": 421, "map_class": 3}}, {"type": "Feature", "geometry": {"type": "Point", "coordinates": [121.50083864402625, 25.135260432535638]}, "properties": {"point_id": 547, "map_class": 5}}, {"type": "Feature", "geometry": {"type": "Point", "coordinates": [121.56595071269143, 24.969496837071105]}, "properties": {"point_id": 412, "map_class": 3}}, {"type": "Feature", "geometry": {"type": "Point", "coordinates": [121.56771572773118, 25.19253441622488]}, "properties": {"point_id": 279, "map_class": 3}}, {"type": "Feature", "geometry": {"type": "Point", "coordinates": [121.59365211904534, 24.972469920352225]}, "properties": {"point_id": 382, "map_class": 3}}, {"type": "Feature", "geometry": {"type": "Point", "coordinates": [121.57170162747825, 25.088828422986396]}, "properties": {"point_id": 401, "map_class": 3}}, {"type": "Feature", "geometry": {"type": "Point", "coordinates": [121.56195811046614, 25.158890479258197]}, "properties": {"point_id": 416, "map_class": 3}}, {"type": "Feature", "geometry": {"type": "Point", "coordinates": [121.5441082892549, 25.082962143789967]}, "properties": {"point_id": 155, "map_class": 2}}, {"type": "Feature", "geometry": {"type": "Point", "coordinates": [121.58800933715023, 25.04149071827109]}, "properties": {"point_id": 127, "map_class": 2}}, {"type": "Feature", "geometry": {"type": "Point", "coordinates": [121.59871660528506, 24.980102354202145]}, "properties": {"point_id": 312, "map_class": 3}}, {"type": "Feature", "geometry": {"type": "Point", "coordinates": [121.55578382643252, 25.101856839211393]}, "properties": {"point_id": 357, "map_class": 3}}, {"type": "Feature", "geometry": {"type": "Point", "coordinates": [121.54840969497104, 25.17203093085328]}, "properties": {"point_id": 451, "map_class": 3}}, {"type": "Feature", "geometry": {"type": "Point", "coordinates": [121.5636180929382, 25.050827835985096]}, "properties": {"point_id": 175, "map_class": 2}}, {"type": "Feature", "geometry": {"type": "Point", "coordinates": [121.5290328099559, 25.016991245381163]}, "properties": {"point_id": 32, "map_class": 1}}, {"type": "Feature", "geometry": {"type": "Point", "coordinates": [121.52350873084576, 25.072826614781675]}, "properties": {"point_id": 114, "map_class": 2}}, {"type": "Feature", "geometry": {"type": "Point", "coordinates": [121.47277346975986, 25.103011531109185]}, "properties": {"point_id": 24, "map_class": 1}}, {"type": "Feature", "geometry": {"type": "Point", "coordinates": [121.52592043164687, 25.0618351081675]}, "properties": {"point_id": 174, "map_class": 2}}, {"type": "Feature", "geometry": {"type": "Point", "coordinates": [121.53459668016531, 25.140654450529315]}, "properties": {"point_id": 406, "map_class": 3}}, {"type": "Feature", "geometry": {"type": "Point", "coordinates": [121.48601144082684, 25.11506546751004]}, "properties": {"point_id": 67, "map_class": 1}}, {"type": "Feature", "geometry": {"type": "Point", "coordinates": [121.5167503532624, 25.049554531229038]}, "properties": {"point_id": 58, "map_class": 1}}, {"type": "Feature", "geometry": {"type": "Point", "coordinates": [121.57226839789767, 25.125401958077067]}, "properties": {"point_id": 378, "map_class": 3}}, {"type": "Feature", "geometry": {"type": "Point", "coordinates": [121.56687417913835, 25.120203289829913]}, "properties": {"point_id": 223, "map_class": 3}}, {"type": "Feature", "geometry": {"type": "Point", "coordinates": [121.49204699210503, 25.01093236822965]}, "properties": {"point_id": 18, "map_class": 1}}, {"type": "Feature", "geometry": {"type": "Point", "coordinates": [121.56451993292208, 25.007405985130216]}, "properties": {"point_id": 301, "map_class": 3}}, {"type": "Feature", "geometry": {"type": "Point", "coordinates": [121.62402081257535, 25.0384877735417]}, "properties": {"point_id": 256, "map_class": 3}}, {"type": "Feature", "geometry": {"type": "Point", "coordinates": [121.60171082842685, 25.135343936716684]}, "properties": {"point_id": 417, "map_class": 3}}, {"type": "Feature", "geometry": {"type": "Point", "coordinates": [121.51469064829551, 25.03129519996915]}, "properties": {"point_id": 579, "map_class": 5}}, {"type": "Feature", "geometry": {"type": "Point", "coordinates": [121.55353337809471, 25.082422286934246]}, "properties": {"point_id": 191, "map_class": 2}}, {"type": "Feature", "geometry": {"type": "Point", "coordinates": [121.57264292352596, 24.973263171125687]}, "properties": {"point_id": 321, "map_class": 3}}, {"type": "Feature", "geometry": {"type": "Point", "coordinates": [121.53741026351722, 25.02917298040685]}, "properties": {"point_id": 532, "map_class": 5}}, {"type": "Feature", "geometry": {"type": "Point", "coordinates": [121.57683682084651, 25.030549007289046]}, "properties": {"point_id": 273, "map_class": 3}}, {"type": "Feature", "geometry": {"type": "Point", "coordinates": [121.5518635239492, 25.047372890982466]}, "properties": {"point_id": 95, "map_class": 2}}, {"type": "Feature", "geometry": {"type": "Point", "coordinates": [121.56471664333674, 24.981945358525312]}, "properties": {"point_id": 181, "map_class": 2}}, {"type": "Feature", "geometry": {"type": "Point", "coordinates": [121.49018332621472, 25.10644023853561]}, "properties": {"point_id": 334, "map_class": 3}}, {"type": "Feature", "geometry": {"type": "Point", "coordinates": [121.57738991566536, 25.111365729291997]}, "properties": {"point_id": 437, "map_class": 3}}, {"type": "Feature", "geometry": {"type": "Point", "coordinates": [121.56103354594262, 24.974957249202234]}, "properties": {"point_id": 581, "map_class": 5}}, {"type": "Feature", "geometry": {"type": "Point", "coordinates": [121.57062016896687, 25.02823203017993]}, "properties": {"point_id": 6, "map_class": 1}}, {"type": "Feature", "geometry": {"type": "Point", "coordinates": [121.51717693249726, 25.079986727722158]}, "properties": {"point_id": 46, "map_class": 1}}, {"type": "Feature", "geometry": {"type": "Point", "coordinates": [121.50883560196944, 25.12197827015938]}, "properties": {"point_id": 536, "map_class": 5}}, {"type": "Feature", "geometry": {"type": "Point", "coordinates": [121.57954999998522, 25.070303616066226]}, "properties": {"point_id": 518, "map_class": 4}}, {"type": "Feature", "geometry": {"type": "Point", "coordinates": [121.6209884893077, 25.079181945664256]}, "properties": {"point_id": 383, "map_class": 3}}, {"type": "Feature", "geometry": {"type": "Point", "coordinates": [121.47115345444529, 25.105703505299658]}, "properties": {"point_id": 17, "map_class": 1}}, {"type": "Feature", "geometry": {"type": "Point", "coordinates": [121.46067736634075, 25.110831855013668]}, "properties": {"point_id": 49, "map_class": 1}}, {"type": "Feature", "geometry": {"type": "Point", "coordinates": [121.50837602841604, 25.061750166003723]}, "properties": {"point_id": 585, "map_class": 5}}, {"type": "Feature", "geometry": {"type": "Point", "coordinates": [121.57828769701432, 24.999231308213588]}, "properties": {"point_id": 530, "map_class": 4}}, {"type": "Feature", "geometry": {"type": "Point", "coordinates": [121.59375370700661, 25.06791067278968]}, "properties": {"point_id": 4, "map_class": 1}}, {"type": "Feature", "geometry": {"type": "Point", "coordinates": [121.53834908711728, 25.133739169069873]}, "properties": {"point_id": 329, "map_class": 3}}, {"type": "Feature", "geometry": {"type": "Point", "coordinates": [121.54341914687365, 25.099298050860074]}, "properties": {"point_id": 443, "map_class": 3}}, {"type": "Feature", "geometry": {"type": "Point", "coordinates": [121.63938795386338, 25.029058132379582]}, "properties": {"point_id": 366, "map_class": 3}}, {"type": "Feature", "geometry": {"type": "Point", "coordinates": [121.56257344669834, 25.09785969486724]}, "properties": {"point_id": 438, "map_class": 3}}, {"type": "Feature", "geometry": {"type": "Point", "coordinates": [121.48792745058574, 25.144699848789468]}, "properties": {"point_id": 507, "map_class": 4}}, {"type": "Feature", "geometry": {"type": "Point", "coordinates": [121.60540799149065, 25.09799778421838]}, "properties": {"point_id": 226, "map_class": 3}}, {"type": "Feature", "geometry": {"type": "Point", "coordinates": [121.50855529213767, 25.071503326395252]}, "properties": {"point_id": 27, "map_class": 1}}, {"type": "Feature", "geometry": {"type": "Point", "coordinates": [121.56136066002891, 25.184436897660134]}, "properties": {"point_id": 429, "map_class": 3}}, {"type": "Feature", "geometry": {"type": "Point", "coordinates": [121.5986738278344, 24.975135798157506]}, "properties": {"point_id": 264, "map_class": 3}}, {"type": "Feature", "geometry": {"type": "Point", "coordinates": [121.50182397843295, 25.046244546168072]}, "properties": {"point_id": 51, "map_class": 1}}, {"type": "Feature", "geometry": {"type": "Point", "coordinates": [121.58094290497061, 25.112844448000093]}, "properties": {"point_id": 230, "map_class": 3}}, {"type": "Feature", "geometry": {"type": "Point", "coordinates": [121.60560959204008, 25.0802120387191]}, "properties": {"point_id": 38, "map_class": 1}}, {"type": "Feature", "geometry": {"type": "Point", "coordinates": [121.58017720973403, 25.041686946121963]}, "properties": {"point_id": 158, "map_class": 2}}, {"type": "Feature", "geometry": {"type": "Point", "coordinates": [121.58919890651833, 25.136579692498447]}, "properties": {"point_id": 238, "map_class": 3}}, {"type": "Feature", "geometry": {"type": "Point", "coordinates": [121.52820023244763, 25.128130997106645]}, "properties": {"point_id": 580, "map_class": 5}}, {"type": "Feature", "geometry": {"type": "Point", "coordinates": [121.5461143101224, 25.03900989675055]}, "properties": {"point_id": 176, "map_class": 2}}, {"type": "Feature", "geometry": {"type": "Point", "coordinates": [121.58966509325622, 25.009362165593917]}, "properties": {"point_id": 504, "map_class": 4}}, {"type": "Feature", "geometry": {"type": "Point", "coordinates": [121.52484568101553, 25.14317607141928]}, "properties": {"point_id": 351, "map_class": 3}}, {"type": "Feature", "geometry": {"type": "Point", "coordinates": [121.61488328738241, 25.040208732923453]}, "properties": {"point_id": 195, "map_class": 2}}, {"type": "Feature", "geometry": {"type": "Point", "coordinates": [121.51270227222169, 25.0236005834579]}, "properties": {"point_id": 553, "map_class": 5}}, {"type": "Feature", "geometry": {"type": "Point", "coordinates": [121.5363571994154, 25.017695581040194]}, "properties": {"point_id": 584, "map_class": 5}}, {"type": "Feature", "geometry": {"type": "Point", "coordinates": [121.54427405313356, 25.102466626797174]}, "properties": {"point_id": 516, "map_class": 4}}, {"type": "Feature", "geometry": {"type": "Point", "coordinates": [121.56960767612964, 25.064248868543924]}, "properties": {"point_id": 68, "map_class": 1}}, {"type": "Feature", "geometry": {"type": "Point", "coordinates": [121.5390878518706, 25.179975006266627]}, "properties": {"point_id": 322, "map_class": 3}}, {"type": "Feature", "geometry": {"type": "Point", "coordinates": [121.61039888369697, 25.033575443148283]}, "properties": {"point_id": 169, "map_class": 2}}, {"type": "Feature", "geometry": {"type": "Point", "coordinates": [121.60589454662295, 25.02874770768975]}, "properties": {"point_id": 454, "map_class": 3}}, {"type": "Feature", "geometry": {"type": "Point", "coordinates": [121.52707923477946, 25.014624324839193]}, "properties": {"point_id": 163, "map_class": 2}}, {"type": "Feature", "geometry": {"type": "Point", "coordinates": [121.53316799458078, 25.16059441203182]}, "properties": {"point_id": 310, "map_class": 3}}, {"type": "Feature", "geometry": {"type": "Point", "coordinates": [121.51183848466329, 25.103318437917796]}, "properties": {"point_id": 194, "map_class": 2}}, {"type": "Feature", "geometry": {"type": "Point", "coordinates": [121.50596745435895, 25.03147862205314]}, "properties": {"point_id": 153, "map_class": 2}}, {"type": "Feature", "geometry": {"type": "Point", "coordinates": [121.50509388954498, 25.168620185531026]}, "properties": {"point_id": 330, "map_class": 3}}, {"type": "Feature", "geometry": {"type": "Point", "coordinates": [121.54340388316237, 25.167467241233087]}, "properties": {"point_id": 439, "map_class": 3}}, {"type": "Feature", "geometry": {"type": "Point", "coordinates": [121.58521414716633, 25.077761678076467]}, "properties": {"point_id": 491, "map_class": 4}}, {"type": "Feature", "geometry": {"type": "Point", "coordinates": [121.55881360597274, 25.088703778456665]}, "properties": {"point_id": 336, "map_class": 3}}, {"type": "Feature", "geometry": {"type": "Point", "coordinates": [121.54388929769293, 25.051177462657172]}, "properties": {"point_id": 104, "map_class": 2}}, {"type": "Feature", "geometry": {"type": "Point", "coordinates": [121.53409765612865, 25.01604806788931]}, "properties": {"point_id": 395, "map_class": 3}}, {"type": "Feature", "geometry": {"type": "Point", "coordinates": [121.49347252729697, 25.11315511663725]}, "properties": {"point_id": 75, "map_class": 1}}, {"type": "Feature", "geometry": {"type": "Point", "coordinates": [121.58768155454145, 24.983519482086642]}, "properties": {"point_id": 427, "map_class": 3}}, {"type": "Feature", "geometry": {"type": "Point", "coordinates": [121.5150708704614, 25.12303406425307]}, "properties": {"point_id": 583, "map_class": 5}}, {"type": "Feature", "geometry": {"type": "Point", "coordinates": [121.52845461853613, 25.098608576803215]}, "properties": {"point_id": 120, "map_class": 2}}, {"type": "Feature", "geometry": {"type": "Point", "coordinates": [121.55727722738861, 25.16886718676434]}, "properties": {"point_id": 391, "map_class": 3}}, {"type": "Feature", "geometry": {"type": "Point", "coordinates": [121.4717438534357, 25.106070747493767]}, "properties": {"point_id": 587, "map_class": 5}}, {"type": "Feature", "geometry": {"type": "Point", "coordinates": [121.59235763984847, 25.007852695386987]}, "properties": {"point_id": 487, "map_class": 4}}, {"type": "Feature", "geometry": {"type": "Point", "coordinates": [121.59203558298297, 25.07945181773914]}, "properties": {"point_id": 208, "map_class": 2}}, {"type": "Feature", "geometry": {"type": "Point", "coordinates": [121.57726111071953, 25.019537370901052]}, "properties": {"point_id": 337, "map_class": 3}}, {"type": "Feature", "geometry": {"type": "Point", "coordinates": [121.57381088700703, 25.026547127469406]}, "properties": {"point_id": 356, "map_class": 3}}, {"type": "Feature", "geometry": {"type": "Point", "coordinates": [121.5013113269064, 25.14528733152409]}, "properties": {"point_id": 524, "map_class": 4}}, {"type": "Feature", "geometry": {"type": "Point", "coordinates": [121.59934450895172, 24.98588705878917]}, "properties": {"point_id": 409, "map_class": 3}}, {"type": "Feature", "geometry": {"type": "Point", "coordinates": [121.60451026229893, 25.054739130684236]}, "properties": {"point_id": 9, "map_class": 1}}, {"type": "Feature", "geometry": {"type": "Point", "coordinates": [121.55001922118257, 25.094577298997784]}, "properties": {"point_id": 381, "map_class": 3}}, {"type": "Feature", "geometry": {"type": "Point", "coordinates": [121.60370987726594, 25.072880467170748]}, "properties": {"point_id": 37, "map_class": 1}}, {"type": "Feature", "geometry": {"type": "Point", "coordinates": [121.53637489130885, 25.04126184112123]}, "properties": {"point_id": 140, "map_class": 2}}, {"type": "Feature", "geometry": {"type": "Point", "coordinates": [121.57451749543051, 25.11106726355439]}, "properties": {"point_id": 254, "map_class": 3}}, {"type": "Feature", "geometry": {"type": "Point", "coordinates": [121.5684446344914, 25.14712523049436]}, "properties": {"point_id": 304, "map_class": 3}}, {"type": "Feature", "geometry": {"type": "Point", "coordinates": [121.59554112386557, 25.128423396066704]}, "properties": {"point_id": 394, "map_class": 3}}, {"type": "Feature", "geometry": {"type": "Point", "coordinates": [121.5419020332992, 25.07671039382307]}, "properties": {"point_id": 60, "map_class": 1}}, {"type": "Feature", "geometry": {"type": "Point", "coordinates": [121.549753132721, 25.066674691557353]}, "properties": {"point_id": 112, "map_class": 2}}, {"type": "Feature", "geometry": {"type": "Point", "coordinates": [121.5041082531204, 25.102969787615407]}, "properties": {"point_id": 556, "map_class": 5}}, {"type": "Feature", "geometry": {"type": "Point", "coordinates": [121.58840284813724, 25.162666345314395]}, "properties": {"point_id": 358, "map_class": 3}}, {"type": "Feature", "geometry": {"type": "Point", "coordinates": [121.56117378593656, 25.098839327838785]}, "properties": {"point_id": 263, "map_class": 3}}, {"type": "Feature", "geometry": {"type": "Point", "coordinates": [121.50943156961543, 25.105551511976728]}, "properties": {"point_id": 498, "map_class": 4}}, {"type": "Feature", "geometry": {"type": "Point", "coordinates": [121.5247215519885, 25.169990896229713]}, "properties": {"point_id": 298, "map_class": 3}}, {"type": "Feature", "geometry": {"type": "Point", "coordinates": [121.54173403790189, 25.06578351016908]}, "properties": {"point_id": 151, "map_class": 2}}, {"type": "Feature", "geometry": {"type": "Point", "coordinates": [121.58320929588875, 24.993409218943896]}, "properties": {"point_id": 267, "map_class": 3}}, {"type": "Feature", "geometry": {"type": "Point", "coordinates": [121.56053731835496, 25.144701024736968]}, "properties": {"point_id": 523, "map_class": 4}}, {"type": "Feature", "geometry": {"type": "Point", "coordinates": [121.52659386921788, 25.113217145837048]}, "properties": {"point_id": 535, "map_class": 5}}, {"type": "Feature", "geometry": {"type": "Point", "coordinates": [121.52927866339408, 25.11261177335862]}, "properties": {"point_id": 39, "map_class": 1}}, {"type": "Feature", "geometry": {"type": "Point", "coordinates": [121.47590485092407, 25.122365588711606]}, "properties": {"point_id": 604, "map_class": 5}}, {"type": "Feature", "geometry": {"type": "Point", "coordinates": [121.575850945526, 25.19270326278998]}, "properties": {"point_id": 308, "map_class": 3}}, {"type": "Feature", "geometry": {"type": "Point", "coordinates": [121.55203248226427, 25.058299828648504]}, "properties": {"point_id": 199, "map_class": 2}}, {"type": "Feature", "geometry": {"type": "Point", "coordinates": [121.48863725021208, 25.111209822897138]}, "properties": {"point_id": 470, "map_class": 4}}, {"type": "Feature", "geometry": {"type": "Point", "coordinates": [121.59241661481629, 25.089477879997016]}, "properties": {"point_id": 424, "map_class": 3}}, {"type": "Feature", "geometry": {"type": "Point", "coordinates": [121.52362845920565, 25.104158614125488]}, "properties": {"point_id": 147, "map_class": 2}}, {"type": "Feature", "geometry": {"type": "Point", "coordinates": [121.59114640018227, 25.087840561948042]}, "properties": {"point_id": 574, "map_class": 5}}, {"type": "Feature", "geometry": {"type": "Point", "coordinates": [121.61049636394287, 25.04251539135133]}, "properties": {"point_id": 537, "map_class": 5}}, {"type": "Feature", "geometry": {"type": "Point", "coordinates": [121.55156407612607, 24.996896746685685]}, "properties": {"point_id": 148, "map_class": 2}}, {"type": "Feature", "geometry": {"type": "Point", "coordinates": [121.59873295720166, 25.07463941433216]}, "properties": {"point_id": 425, "map_class": 3}}, {"type": "Feature", "geometry": {"type": "Point", "coordinates": [121.61928507307097, 25.01885012167198]}, "properties": {"point_id": 349, "map_class": 3}}, {"type": "Feature", "geometry": {"type": "Point", "coordinates": [121.53399717174894, 25.15762305611103]}, "properties": {"point_id": 326, "map_class": 3}}, {"type": "Feature", "geometry": {"type": "Point", "coordinates": [121.56041162200525, 25.01133913316207]}, "properties": {"point_id": 396, "map_class": 3}}, {"type": "Feature", "geometry": {"type": "Point", "coordinates": [121.50514738113235, 25.033727640924532]}, "properties": {"point_id": 124, "map_class": 2}}, {"type": "Feature", "geometry": {"type": "Point", "coordinates": [121.57180882114466, 24.985444725196285]}, "properties": {"point_id": 508, "map_class": 4}}, {"type": "Feature", "geometry": {"type": "Point", "coordinates": [121.51565936834297, 25.066066820919307]}, "properties": {"point_id": 97, "map_class": 2}}, {"type": "Feature", "geometry": {"type": "Point", "coordinates": [121.51215219191539, 25.060975442649806]}, "properties": {"point_id": 144, "map_class": 2}}, {"type": "Feature", "geometry": {"type": "Point", "coordinates": [121.51763139468719, 25.165586157040444]}, "properties": {"point_id": 240, "map_class": 3}}, {"type": "Feature", "geometry": {"type": "Point", "coordinates": [121.56164972981665, 24.998619880490825]}, "properties": {"point_id": 474, "map_class": 4}}, {"type": "Feature", "geometry": {"type": "Point", "coordinates": [121.56746151854887, 24.99298752838523]}, "properties": {"point_id": 98, "map_class": 2}}, {"type": "Feature", "geometry": {"type": "Point", "coordinates": [121.5714093095071, 25.139569403958905]}, "properties": {"point_id": 325, "map_class": 3}}, {"type": "Feature", "geometry": {"type": "Point", "coordinates": [121.52079738735425, 25.12516800264487]}, "properties": {"point_id": 280, "map_class": 3}}, {"type": "Feature", "geometry": {"type": "Point", "coordinates": [121.55848884218629, 24.97231413698802]}, "properties": {"point_id": 294, "map_class": 3}}, {"type": "Feature", "geometry": {"type": "Point", "coordinates": [121.50747764541728, 25.09496793208441]}, "properties": {"point_id": 483, "map_class": 4}}, {"type": "Feature", "geometry": {"type": "Point", "coordinates": [121.52842428834165, 25.051386191349035]}, "properties": {"point_id": 123, "map_class": 2}}, {"type": "Feature", "geometry": {"type": "Point", "coordinates": [121.55926642588227, 25.10929459686958]}, "properties": {"point_id": 184, "map_class": 2}}, {"type": "Feature", "geometry": {"type": "Point", "coordinates": [121.5451041578535, 25.040625256948815]}, "properties": {"point_id": 203, "map_class": 2}}, {"type": "Feature", "geometry": {"type": "Point", "coordinates": [121.54778256674422, 25.116044663186827]}, "properties": {"point_id": 324, "map_class": 3}}, {"type": "Feature", "geometry": {"type": "Point", "coordinates": [121.62041784906272, 25.094707034751213]}, "properties": {"point_id": 247, "map_class": 3}}, {"type": "Feature", "geometry": {"type": "Point", "coordinates": [121.58518004923401, 25.149633628932964]}, "properties": {"point_id": 423, "map_class": 3}}, {"type": "Feature", "geometry": {"type": "Point", "coordinates": [121.6060007799644, 25.028116651134507]}, "properties": {"point_id": 422, "map_class": 3}}, {"type": "Feature", "geometry": {"type": "Point", "coordinates": [121.56046177968821, 25.134226547916764]}, "properties": {"point_id": 484, "map_class": 4}}, {"type": "Feature", "geometry": {"type": "Point", "coordinates": [121.5368610007571, 25.183654883569673]}, "properties": {"point_id": 415, "map_class": 3}}, {"type": "Feature", "geometry": {"type": "Point", "coordinates": [121.47849489431503, 25.105417864988084]}, "properties": {"point_id": 534, "map_class": 5}}, {"type": "Feature", "geometry": {"type": "Point", "coordinates": [121.57216209299747, 25.083325056312503]}, "properties": {"point_id": 479, "map_class": 4}}, {"type": "Feature", "geometry": {"type": "Point", "coordinates": [121.51881541018518, 25.083885581926268]}, "properties": {"point_id": 126, "map_class": 2}}, {"type": "Feature", "geometry": {"type": "Point", "coordinates": [121.53268942659199, 25.001136051682654]}, "properties": {"point_id": 489, "map_class": 4}}, {"type": "Feature", "geometry": {"type": "Point", "coordinates": [121.54496736339142, 25.001798428688968]}, "properties": {"point_id": 569, "map_class": 5}}, {"type": "Feature", "geometry": {"type": "Point", "coordinates": [121.54038061148627, 25.146399848235298]}, "properties": {"point_id": 224, "map_class": 3}}, {"type": "Feature", "geometry": {"type": "Point", "coordinates": [121.5977979717273, 24.965014648503637]}, "properties": {"point_id": 343, "map_class": 3}}, {"type": "Feature", "geometry": {"type": "Point", "coordinates": [121.54330010967547, 25.04232311761836]}, "properties": {"point_id": 54, "map_class": 1}}, {"type": "Feature", "geometry": {"type": "Point", "coordinates": [121.58819023377704, 24.982350495249584]}, "properties": {"point_id": 220, "map_class": 3}}, {"type": "Feature", "geometry": {"type": "Point", "coordinates": [121.53027111427855, 25.12083803931461]}, "properties": {"point_id": 130, "map_class": 2}}, {"type": "Feature", "geometry": {"type": "Point", "coordinates": [121.57071432617636, 25.071392592232236]}, "properties": {"point_id": 548, "map_class": 5}}, {"type": "Feature", "geometry": {"type": "Point", "coordinates": [121.55738509193522, 25.075236466012583]}, "properties": {"point_id": 482, "map_class": 4}}, {"type": "Feature", "geometry": {"type": "Point", "coordinates": [121.56678674727512, 25.127696615902035]}, "properties": {"point_id": 453, "map_class": 3}}, {"type": "Feature", "geometry": {"type": "Point", "coordinates": [121.54065041338323, 25.081934972426115]}, "properties": {"point_id": 550, "map_class": 5}}, {"type": "Feature", "geometry": {"type": "Point", "coordinates": [121.59141258106509, 25.02120712394102]}, "properties": {"point_id": 400, "map_class": 3}}, {"type": "Feature", "geometry": {"type": "Point", "coordinates": [121.47585611772533, 25.134283208078816]}, "properties": {"point_id": 514, "map_class": 4}}, {"type": "Feature", "geometry": {"type": "Point", "coordinates": [121.59673211618795, 24.989113012032135]}, "properties": {"point_id": 463, "map_class": 4}}, {"type": "Feature", "geometry": {"type": "Point", "coordinates": [121.54664146846861, 25.162171942990483]}, "properties": {"point_id": 387, "map_class": 3}}, {"type": "Feature", "geometry": {"type": "Point", "coordinates": [121.60992481142688, 25.058040465077504]}, "properties": {"point_id": 586, "map_class": 5}}, {"type": "Feature", "geometry": {"type": "Point", "coordinates": [121.55107517441783, 25.013234868817822]}, "properties": {"point_id": 295, "map_class": 3}}, {"type": "Feature", "geometry": {"type": "Point", "coordinates": [121.56143179304773, 25.119157363612114]}, "properties": {"point_id": 512, "map_class": 4}}, {"type": "Feature", "geometry": {"type": "Point", "coordinates": [121.54806250620909, 25.016636573624535]}, "properties": {"point_id": 598, "map_class": 5}}, {"type": "Feature", "geometry": {"type": "Point", "coordinates": [121.53169219702576, 25.15127991641433]}, "properties": {"point_id": 420, "map_class": 3}}, {"type": "Feature", "geometry": {"type": "Point", "coordinates": [121.6145523911749, 25.06964123258173]}, "properties": {"point_id": 113, "map_class": 2}}, {"type": "Feature", "geometry": {"type": "Point", "coordinates": [121.55742981445859, 25.062957241796656]}, "properties": {"point_id": 180, "map_class": 2}}, {"type": "Feature", "geometry": {"type": "Point", "coordinates": [121.58269708360574, 25.141303079489642]}, "properties": {"point_id": 426, "map_class": 3}}, {"type": "Feature", "geometry": {"type": "Point", "coordinates": [121.48336987801765, 25.112149211053858]}, "properties": {"point_id": 466, "map_class": 4}}, {"type": "Feature", "geometry": {"type": "Point", "coordinates": [121.48679557305651, 25.035167099866978]}, "properties": {"point_id": 555, "map_class": 5}}, {"type": "Feature", "geometry": {"type": "Point", "coordinates": [121.60840796733544, 25.095768648623977]}, "properties": {"point_id": 374, "map_class": 3}}, {"type": "Feature", "geometry": {"type": "Point", "coordinates": [121.55916782894428, 25.143062474034238]}, "properties": {"point_id": 315, "map_class": 3}}, {"type": "Feature", "geometry": {"type": "Point", "coordinates": [121.53096119874427, 25.104592603550152]}, "properties": {"point_id": 152, "map_class": 2}}, {"type": "Feature", "geometry": {"type": "Point", "coordinates": [121.53048834845474, 25.077771591415132]}, "properties": {"point_id": 497, "map_class": 4}}, {"type": "Feature", "geometry": {"type": "Point", "coordinates": [121.57335235248193, 25.11746675247821]}, "properties": {"point_id": 234, "map_class": 3}}, {"type": "Feature", "geometry": {"type": "Point", "coordinates": [121.58979002512031, 25.01577415878786]}, "properties": {"point_id": 307, "map_class": 3}}, {"type": "Feature", "geometry": {"type": "Point", "coordinates": [121.59629833672791, 24.98369130796814]}, "properties": {"point_id": 432, "map_class": 3}}, {"type": "Feature", "geometry": {"type": "Point", "coordinates": [121.56322862313479, 25.033217115658342]}, "properties": {"point_id": 165, "map_class": 2}}, {"type": "Feature", "geometry": {"type": "Point", "coordinates": [121.51495194252465, 25.165649588107087]}, "properties": {"point_id": 318, "map_class": 3}}, {"type": "Feature", "geometry": {"type": "Point", "coordinates": [121.56537500421271, 25.06167985305831]}, "properties": {"point_id": 137, "map_class": 2}}, {"type": "Feature", "geometry": {"type": "Point", "coordinates": [121.5795948266047, 24.988950391496658]}, "properties": {"point_id": 411, "map_class": 3}}, {"type": "Feature", "geometry": {"type": "Point", "coordinates": [121.56575570300801, 25.063037909732316]}, "properties": {"point_id": 198, "map_class": 2}}, {"type": "Feature", "geometry": {"type": "Point", "coordinates": [121.493540835266, 25.14800745780135]}, "properties": {"point_id": 481, "map_class": 4}}, {"type": "Feature", "geometry": {"type": "Point", "coordinates": [121.53060684122613, 25.084454282484277]}, "properties": {"point_id": 259, "map_class": 3}}, {"type": "Feature", "geometry": {"type": "Point", "coordinates": [121.6028295246768, 25.132916606767502]}, "properties": {"point_id": 233, "map_class": 3}}, {"type": "Feature", "geometry": {"type": "Point", "coordinates": [121.56654759595199, 25.063135849824345]}, "properties": {"point_id": 116, "map_class": 2}}, {"type": "Feature", "geometry": {"type": "Point", "coordinates": [121.5829540725405, 25.05877873781651]}, "properties": {"point_id": 121, "map_class": 2}}, {"type": "Feature", "geometry": {"type": "Point", "coordinates": [121.55727817701876, 24.999661050986436]}, "properties": {"point_id": 480, "map_class": 4}}, {"type": "Feature", "geometry": {"type": "Point", "coordinates": [121.55210577195794, 25.153106152331524]}, "properties": {"point_id": 377, "map_class": 3}}, {"type": "Feature", "geometry": {"type": "Point", "coordinates": [121.63581858551042, 25.029205998053687]}, "properties": {"point_id": 385, "map_class": 3}}, {"type": "Feature", "geometry": {"type": "Point", "coordinates": [121.5747547160724, 25.004885943492617]}, "properties": {"point_id": 225, "map_class": 3}}, {"type": "Feature", "geometry": {"type": "Point", "coordinates": [121.53004876473352, 25.0481517989895]}, "properties": {"point_id": 573, "map_class": 5}}, {"type": "Feature", "geometry": {"type": "Point", "coordinates": [121.55372823402122, 25.124861013431214]}, "properties": {"point_id": 488, "map_class": 4}}, {"type": "Feature", "geometry": {"type": "Point", "coordinates": [121.51383269003335, 25.159769542663042]}, "properties": {"point_id": 348, "map_class": 3}}, {"type": "Feature", "geometry": {"type": "Point", "coordinates": [121.50293931406162, 25.044179111448845]}, "properties": {"point_id": 128, "map_class": 2}}, {"type": "Feature", "geometry": {"type": "Point", "coordinates": [121.585770069432, 25.04661609651863]}, "properties": {"point_id": 596, "map_class": 5}}, {"type": "Feature", "geometry": {"type": "Point", "coordinates": [121.5163292537438, 25.142007530218688]}, "properties": {"point_id": 286, "map_class": 3}}, {"type": "Feature", "geometry": {"type": "Point", "coordinates": [121.61727995292173, 25.038605776855686]}, "properties": {"point_id": 558, "map_class": 5}}, {"type": "Feature", "geometry": {"type": "Point", "coordinates": [121.50816843135874, 25.02156874633067]}, "properties": {"point_id": 44, "map_class": 1}}, {"type": "Feature", "geometry": {"type": "Point", "coordinates": [121.48111946653539, 25.109688364542823]}, "properties": {"point_id": 108, "map_class": 2}}, {"type": "Feature", "geometry": {"type": "Point", "coordinates": [121.52373188608838, 25.145061061894275]}, "properties": {"point_id": 510, "map_class": 4}}, {"type": "Feature", "geometry": {"type": "Point", "coordinates": [121.52797300200105, 25.163612700053264]}, "properties": {"point_id": 450, "map_class": 3}}, {"type": "Feature", "geometry": {"type": "Point", "coordinates": [121.51155546950187, 25.052933602146243]}, "properties": {"point_id": 134, "map_class": 2}}, {"type": "Feature", "geometry": {"type": "Point", "coordinates": [121.55966974700925, 25.184781606120687]}, "properties": {"point_id": 441, "map_class": 3}}, {"type": "Feature", "geometry": {"type": "Point", "coordinates": [121.48980447357069, 25.104991749481563]}, "properties": {"point_id": 501, "map_class": 4}}, {"type": "Feature", "geometry": {"type": "Point", "coordinates": [121.53698715640873, 25.04813001556123]}, "properties": {"point_id": 45, "map_class": 1}}, {"type": "Feature", "geometry": {"type": "Point", "coordinates": [121.61883918099198, 25.058665411409137]}, "properties": {"point_id": 170, "map_class": 2}}, {"type": "Feature", "geometry": {"type": "Point", "coordinates": [121.49149677572579, 25.039729417419213]}, "properties": {"point_id": 66, "map_class": 1}}, {"type": "Feature", "geometry": {"type": "Point", "coordinates": [121.52565739531101, 25.15817227023051]}, "properties": {"point_id": 284, "map_class": 3}}, {"type": "Feature", "geometry": {"type": "Point", "coordinates": [121.55652678587349, 24.996132357143477]}, "properties": {"point_id": 86, "map_class": 2}}, {"type": "Feature", "geometry": {"type": "Point", "coordinates": [121.56906101408673, 25.15381271958295]}, "properties": {"point_id": 243, "map_class": 3}}, {"type": "Feature", "geometry": {"type": "Point", "coordinates": [121.558692498253, 24.997327159546465]}, "properties": {"point_id": 187, "map_class": 2}}, {"type": "Feature", "geometry": {"type": "Point", "coordinates": [121.61852073170377, 25.02516357804241]}, "properties": {"point_id": 327, "map_class": 3}}, {"type": "Feature", "geometry": {"type": "Point", "coordinates": [121.4881351148665, 25.119782183335488]}, "properties": {"point_id": 160, "map_class": 2}}, {"type": "Feature", "geometry": {"type": "Point", "coordinates": [121.57187554966667, 25.073841652230524]}, "properties": {"point_id": 13, "map_class": 1}}, {"type": "Feature", "geometry": {"type": "Point", "coordinates": [121.61448109979034, 25.03189798791762]}, "properties": {"point_id": 36, "map_class": 1}}, {"type": "Feature", "geometry": {"type": "Point", "coordinates": [121.58547003542608, 25.081375805476466]}, "properties": {"point_id": 29, "map_class": 1}}, {"type": "Feature", "geometry": {"type": "Point", "coordinates": [121.52444668167041, 25.06073697806373]}, "properties": {"point_id": 171, "map_class": 2}}, {"type": "Feature", "geometry": {"type": "Point", "coordinates": [121.55302939751769, 25.032486101839158]}, "properties": {"point_id": 143, "map_class": 2}}, {"type": "Feature", "geometry": {"type": "Point", "coordinates": [121.54681134469399, 25.181315126138077]}, "properties": {"point_id": 237, "map_class": 3}}, {"type": "Feature", "geometry": {"type": "Point", "coordinates": [121.47083160441127, 25.11563196048978]}, "properties": {"point_id": 469, "map_class": 4}}, {"type": "Feature", "geometry": {"type": "Point", "coordinates": [121.53207445116215, 25.111014255109495]}, "properties": {"point_id": 502, "map_class": 4}}, {"type": "Feature", "geometry": {"type": "Point", "coordinates": [121.60337232096305, 25.02393848288524]}, "properties": {"point_id": 222, "map_class": 3}}, {"type": "Feature", "geometry": {"type": "Point", "coordinates": [121.61231326769203, 25.048401436841086]}, "properties": {"point_id": 549, "map_class": 5}}, {"type": "Feature", "geometry": {"type": "Point", "coordinates": [121.59629455520246, 25.062426870796276]}, "properties": {"point_id": 96, "map_class": 2}}, {"type": "Feature", "geometry": {"type": "Point", "coordinates": [121.61156093803099, 25.06238984054679]}, "properties": {"point_id": 52, "map_class": 1}}, {"type": "Feature", "geometry": {"type": "Point", "coordinates": [121.55340522147392, 25.177497263566497]}, "properties": {"point_id": 241, "map_class": 3}}, {"type": "Feature", "geometry": {"type": "Point", "coordinates": [121.55856001105823, 25.144140049588124]}, "properties": {"point_id": 513, "map_class": 4}}, {"type": "Feature", "geometry": {"type": "Point", "coordinates": [121.58673332263521, 24.971140283689536]}, "properties": {"point_id": 352, "map_class": 3}}, {"type": "Feature", "geometry": {"type": "Point", "coordinates": [121.5703378119605, 25.08673857633209]}, "properties": {"point_id": 525, "map_class": 4}}, {"type": "Feature", "geometry": {"type": "Point", "coordinates": [121.58463701123091, 25.076221207132427]}, "properties": {"point_id": 179, "map_class": 2}}, {"type": "Feature", "geometry": {"type": "Point", "coordinates": [121.49651103936564, 25.043030701021067]}, "properties": {"point_id": 461, "map_class": 4}}, {"type": "Feature", "geometry": {"type": "Point", "coordinates": [121.590465792823, 24.99997926704612]}, "properties": {"point_id": 531, "map_class": 5}}, {"type": "Feature", "geometry": {"type": "Point", "coordinates": [121.50538385700007, 25.079597539910367]}, "properties": {"point_id": 42, "map_class": 1}}, {"type": "Feature", "geometry": {"type": "Point", "coordinates": [121.53493385949088, 25.045762202349966]}, "properties": {"point_id": 559, "map_class": 5}}, {"type": "Feature", "geometry": {"type": "Point", "coordinates": [121.50412500791373, 25.109741691421817]}, "properties": {"point_id": 527, "map_class": 4}}, {"type": "Feature", "geometry": {"type": "Point", "coordinates": [121.59093388710005, 25.063098430154394]}, "properties": {"point_id": 207, "map_class": 2}}, {"type": "Feature", "geometry": {"type": "Point", "coordinates": [121.58355044145365, 24.972283845599243]}, "properties": {"point_id": 393, "map_class": 3}}, {"type": "Feature", "geometry": {"type": "Point", "coordinates": [121.60218668107277, 25.12839594165844]}, "properties": {"point_id": 283, "map_class": 3}}, {"type": "Feature", "geometry": {"type": "Point", "coordinates": [121.55138988541866, 25.129713877103843]}, "properties": {"point_id": 359, "map_class": 3}}, {"type": "Feature", "geometry": {"type": "Point", "coordinates": [121.57572057457341, 25.015640033790007]}, "properties": {"point_id": 398, "map_class": 3}}, {"type": "Feature", "geometry": {"type": "Point", "coordinates": [121.51618623509994, 25.15383404084029]}, "properties": {"point_id": 255, "map_class": 3}}, {"type": "Feature", "geometry": {"type": "Point", "coordinates": [121.54998309196023, 25.173220128354295]}, "properties": {"point_id": 218, "map_class": 3}}, {"type": "Feature", "geometry": {"type": "Point", "coordinates": [121.55886533391286, 25.03344573736233]}, "properties": {"point_id": 5, "map_class": 1}}, {"type": "Feature", "geometry": {"type": "Point", "coordinates": [121.59739276545506, 25.10523587164508]}, "properties": {"point_id": 257, "map_class": 3}}, {"type": "Feature", "geometry": {"type": "Point", "coordinates": [121.62423768812023, 25.0811985540824]}, "properties": {"point_id": 568, "map_class": 5}}, {"type": "Feature", "geometry": {"type": "Point", "coordinates": [121.60128502314542, 25.0681624146734]}, "properties": {"point_id": 538, "map_class": 5}}, {"type": "Feature", "geometry": {"type": "Point", "coordinates": [121.48823407150542, 25.15201637958478]}, "properties": {"point_id": 431, "map_class": 3}}, {"type": "Feature", "geometry": {"type": "Point", "coordinates": [121.57612139006775, 25.049593853740138]}, "properties": {"point_id": 101, "map_class": 2}}, {"type": "Feature", "geometry": {"type": "Point", "coordinates": [121.60664487439817, 25.076339175575185]}, "properties": {"point_id": 227, "map_class": 3}}, {"type": "Feature", "geometry": {"type": "Point", "coordinates": [121.56532656249976, 25.11684754128634]}, "properties": {"point_id": 449, "map_class": 3}}, {"type": "Feature", "geometry": {"type": "Point", "coordinates": [121.4836127513375, 25.116575864364176]}, "properties": {"point_id": 552, "map_class": 5}}, {"type": "Feature", "geometry": {"type": "Point", "coordinates": [121.57900229185715, 25.031833826569844]}, "properties": {"point_id": 577, "map_class": 5}}, {"type": "Feature", "geometry": {"type": "Point", "coordinates": [121.62743664141672, 25.087729288103866]}, "properties": {"point_id": 214, "map_class": 3}}, {"type": "Feature", "geometry": {"type": "Point", "coordinates": [121.58499880275255, 24.984216342180986]}, "properties": {"point_id": 360, "map_class": 3}}, {"type": "Feature", "geometry": {"type": "Point", "coordinates": [121.540205186913, 25.111094538722035]}, "properties": {"point_id": 172, "map_class": 2}}, {"type": "Feature", "geometry": {"type": "Point", "coordinates": [121.57991960637996, 25.08123249739742]}, "properties": {"point_id": 99, "map_class": 2}}, {"type": "Feature", "geometry": {"type": "Point", "coordinates": [121.56417914380823, 25.1725459287348]}, "properties": {"point_id": 293, "map_class": 3}}, {"type": "Feature", "geometry": {"type": "Point", "coordinates": [121.60721230262358, 25.02614155678498]}, "properties": {"point_id": 216, "map_class": 3}}, {"type": "Feature", "geometry": {"type": "Point", "coordinates": [121.52454460953942, 25.035998219091905]}, "properties": {"point_id": 62, "map_class": 1}}, {"type": "Feature", "geometry": {"type": "Point", "coordinates": [121.56228225835176, 25.105802512127266]}, "properties": {"point_id": 407, "map_class": 3}}, {"type": "Feature", "geometry": {"type": "Point", "coordinates": [121.51046171983143, 25.09418531937584]}, "properties": {"point_id": 48, "map_class": 1}}, {"type": "Feature", "geometry": {"type": "Point", "coordinates": [121.60962898566945, 25.075464234537893]}, "properties": {"point_id": 33, "map_class": 1}}, {"type": "Feature", "geometry": {"type": "Point", "coordinates": [121.51432321309522, 25.127450773786524]}, "properties": {"point_id": 418, "map_class": 3}}, {"type": "Feature", "geometry": {"type": "Point", "coordinates": [121.60146261784297, 25.096154784957843]}, "properties": {"point_id": 268, "map_class": 3}}, {"type": "Feature", "geometry": {"type": "Point", "coordinates": [121.53601556529844, 25.17136710388869]}, "properties": {"point_id": 328, "map_class": 3}}, {"type": "Feature", "geometry": {"type": "Point", "coordinates": [121.50870062581181, 25.084055130440788]}, "properties": {"point_id": 201, "map_class": 2}}, {"type": "Feature", "geometry": {"type": "Point", "coordinates": [121.559848826746, 25.051062208439582]}, "properties": {"point_id": 135, "map_class": 2}}, {"type": "Feature", "geometry": {"type": "Point", "coordinates": [121.47860379547802, 25.112642109188236]}, "properties": {"point_id": 28, "map_class": 1}}, {"type": "Feature", "geometry": {"type": "Point", "coordinates": [121.51584083298019, 25.042773635765386]}, "properties": {"point_id": 529, "map_class": 4}}, {"type": "Feature", "geometry": {"type": "Point", "coordinates": [121.57379401262182, 25.08794563545924]}, "properties": {"point_id": 506, "map_class": 4}}, {"type": "Feature", "geometry": {"type": "Point", "coordinates": [121.47819152778612, 25.11390192393428]}, "properties": {"point_id": 231, "map_class": 3}}, {"type": "Feature", "geometry": {"type": "Point", "coordinates": [121.54772821985311, 25.112251915145396]}, "properties": {"point_id": 490, "map_class": 4}}, {"type": "Feature", "geometry": {"type": "Point", "coordinates": [121.64529199185786, 25.023875001514707]}, "properties": {"point_id": 379, "map_class": 3}}, {"type": "Feature", "geometry": {"type": "Point", "coordinates": [121.58857359297289, 25.12194647909714]}, "properties": {"point_id": 289, "map_class": 3}}, {"type": "Feature", "geometry": {"type": "Point", "coordinates": [121.60354848296107, 25.10457163287535]}, "properties": {"point_id": 419, "map_class": 3}}, {"type": "Feature", "geometry": {"type": "Point", "coordinates": [121.59582930868116, 25.02495093001112]}, "properties": {"point_id": 392, "map_class": 3}}, {"type": "Feature", "geometry": {"type": "Point", "coordinates": [121.49187953879218, 25.016528682003983]}, "properties": {"point_id": 499, "map_class": 4}}, {"type": "Feature", "geometry": {"type": "Point", "coordinates": [121.56290010855349, 24.984817194281273]}, "properties": {"point_id": 139, "map_class": 2}}, {"type": "Feature", "geometry": {"type": "Point", "coordinates": [121.55284752447905, 25.073296168573453]}, "properties": {"point_id": 63, "map_class": 1}}, {"type": "Feature", "geometry": {"type": "Point", "coordinates": [121.53874010456929, 25.084173445826448]}, "properties": {"point_id": 472, "map_class": 4}}, {"type": "Feature", "geometry": {"type": "Point", "coordinates": [121.5183410275151, 25.115030981812428]}, "properties": {"point_id": 129, "map_class": 2}}, {"type": "Feature", "geometry": {"type": "Point", "coordinates": [121.62289929514102, 25.076761775406435]}, "properties": {"point_id": 589, "map_class": 5}}, {"type": "Feature", "geometry": {"type": "Point", "coordinates": [121.50715112840454, 25.105528569799116]}, "properties": {"point_id": 521, "map_class": 4}}, {"type": "Feature", "geometry": {"type": "Point", "coordinates": [121.57302045345595, 24.99204773313502]}, "properties": {"point_id": 65, "map_class": 1}}, {"type": "Feature", "geometry": {"type": "Point", "coordinates": [121.53117342363042, 25.111727654442927]}, "properties": {"point_id": 15, "map_class": 1}}, {"type": "Feature", "geometry": {"type": "Point", "coordinates": [121.54478121217429, 25.05958330892977]}, "properties": {"point_id": 157, "map_class": 2}}, {"type": "Feature", "geometry": {"type": "Point", "coordinates": [121.58566889201843, 25.046795718301816]}, "properties": {"point_id": 41, "map_class": 1}}, {"type": "Feature", "geometry": {"type": "Point", "coordinates": [121.57596530476283, 25.14015501974432]}, "properties": {"point_id": 493, "map_class": 4}}, {"type": "Feature", "geometry": {"type": "Point", "coordinates": [121.55906957207638, 25.193624209147625]}, "properties": {"point_id": 380, "map_class": 3}}, {"type": "Feature", "geometry": {"type": "Point", "coordinates": [121.52269463885422, 25.024964316100156]}, "properties": {"point_id": 188, "map_class": 2}}, {"type": "Feature", "geometry": {"type": "Point", "coordinates": [121.56493278052533, 25.167496962312025]}, "properties": {"point_id": 217, "map_class": 3}}, {"type": "Feature", "geometry": {"type": "Point", "coordinates": [121.54792865370042, 25.028012045358558]}, "properties": {"point_id": 53, "map_class": 1}}, {"type": "Feature", "geometry": {"type": "Point", "coordinates": [121.54828562605536, 25.182503370337677]}, "properties": {"point_id": 338, "map_class": 3}}, {"type": "Feature", "geometry": {"type": "Point", "coordinates": [121.58664149898931, 24.970507357596276]}, "properties": {"point_id": 296, "map_class": 3}}, {"type": "Feature", "geometry": {"type": "Point", "coordinates": [121.5773891762908, 25.1456764689188]}, "properties": {"point_id": 252, "map_class": 3}}, {"type": "Feature", "geometry": {"type": "Point", "coordinates": [121.5048676573484, 25.048622768146675]}, "properties": {"point_id": 462, "map_class": 4}}, {"type": "Feature", "geometry": {"type": "Point", "coordinates": [121.50091578144178, 25.112688835071143]}, "properties": {"point_id": 456, "map_class": 4}}, {"type": "Feature", "geometry": {"type": "Point", "coordinates": [121.4774482223972, 25.117867006237223]}, "properties": {"point_id": 603, "map_class": 5}}, {"type": "Feature", "geometry": {"type": "Point", "coordinates": [121.60019935592796, 25.076459104729384]}, "properties": {"point_id": 270, "map_class": 3}}, {"type": "Feature", "geometry": {"type": "Point", "coordinates": [121.48914337071588, 25.11843812594038]}, "properties": {"point_id": 202, "map_class": 2}}, {"type": "Feature", "geometry": {"type": "Point", "coordinates": [121.51981760611214, 25.05825304988184]}, "properties": {"point_id": 162, "map_class": 2}}, {"type": "Feature", "geometry": {"type": "Point", "coordinates": [121.57233853248059, 25.153483192752763]}, "properties": {"point_id": 402, "map_class": 3}}, {"type": "Feature", "geometry": {"type": "Point", "coordinates": [121.55602191212144, 25.174362659646523]}, "properties": {"point_id": 477, "map_class": 4}}, {"type": "Feature", "geometry": {"type": "Point", "coordinates": [121.53267942882256, 25.01865253174008]}, "properties": {"point_id": 106, "map_class": 2}}, {"type": "Feature", "geometry": {"type": "Point", "coordinates": [121.50746393762583, 25.02246458227524]}, "properties": {"point_id": 390, "map_class": 3}}, {"type": "Feature", "geometry": {"type": "Point", "coordinates": [121.52268918951937, 25.066768982478965]}, "properties": {"point_id": 2, "map_class": 1}}, {"type": "Feature", "geometry": {"type": "Point", "coordinates": [121.54667142881013, 25.159644109086493]}, "properties": {"point_id": 572, "map_class": 5}}, {"type": "Feature", "geometry": {"type": "Point", "coordinates": [121.55875888518123, 25.08491100627851]}, "properties": {"point_id": 81, "map_class": 2}}, {"type": "Feature", "geometry": {"type": "Point", "coordinates": [121.4931485026122, 25.03432876297919]}, "properties": {"point_id": 206, "map_class": 2}}, {"type": "Feature", "geometry": {"type": "Point", "coordinates": [121.55494249493371, 25.03837369440209]}, "properties": {"point_id": 35, "map_class": 1}}, {"type": "Feature", "geometry": {"type": "Point", "coordinates": [121.5154503492243, 25.083400498148997]}, "properties": {"point_id": 509, "map_class": 4}}, {"type": "Feature", "geometry": {"type": "Point", "coordinates": [121.6334033295896, 25.03252468319701]}, "properties": {"point_id": 428, "map_class": 3}}, {"type": "Feature", "geometry": {"type": "Point", "coordinates": [121.60040172756135, 25.023729953343604]}, "properties": {"point_id": 455, "map_class": 3}}, {"type": "Feature", "geometry": {"type": "Point", "coordinates": [121.60354326501863, 25.131207786674764]}, "properties": {"point_id": 367, "map_class": 3}}, {"type": "Feature", "geometry": {"type": "Point", "coordinates": [121.50300179840188, 25.039033182623356]}, "properties": {"point_id": 92, "map_class": 2}}, {"type": "Feature", "geometry": {"type": "Point", "coordinates": [121.56177026844881, 24.979749886342397]}, "properties": {"point_id": 340, "map_class": 3}}, {"type": "Feature", "geometry": {"type": "Point", "coordinates": [121.57036421463616, 25.007552580339702]}, "properties": {"point_id": 346, "map_class": 3}}, {"type": "Feature", "geometry": {"type": "Point", "coordinates": [121.58985850481717, 24.975052542756217]}, "properties": {"point_id": 242, "map_class": 3}}, {"type": "Feature", "geometry": {"type": "Point", "coordinates": [121.46633462513893, 25.102493631529104]}, "properties": {"point_id": 14, "map_class": 1}}, {"type": "Feature", "geometry": {"type": "Point", "coordinates": [121.58541228960061, 25.163901875623733]}, "properties": {"point_id": 316, "map_class": 3}}, {"type": "Feature", "geometry": {"type": "Point", "coordinates": [121.58579705255467, 25.087428496908363]}, "properties": {"point_id": 388, "map_class": 3}}, {"type": "Feature", "geometry": {"type": "Point", "coordinates": [121.60113277402753, 25.090282666073442]}, "properties": {"point_id": 274, "map_class": 3}}, {"type": "Feature", "geometry": {"type": "Point", "coordinates": [121.54942595733165, 25.03552088966377]}, "properties": {"point_id": 167, "map_class": 2}}, {"type": "Feature", "geometry": {"type": "Point", "coordinates": [121.50611880312124, 25.08439031748773]}, "properties": {"point_id": 600, "map_class": 5}}, {"type": "Feature", "geometry": {"type": "Point", "coordinates": [121.47074338513002, 25.10678274333173]}, "properties": {"point_id": 485, "map_class": 4}}, {"type": "Feature", "geometry": {"type": "Point", "coordinates": [121.52288774154982, 25.017110895789184]}, "properties": {"point_id": 591, "map_class": 5}}, {"type": "Feature", "geometry": {"type": "Point", "coordinates": [121.46946513620331, 25.129793180639474]}, "properties": {"point_id": 505, "map_class": 4}}, {"type": "Feature", "geometry": {"type": "Point", "coordinates": [121.5360767045622, 25.132994410472687]}, "properties": {"point_id": 244, "map_class": 3}}, {"type": "Feature", "geometry": {"type": "Point", "coordinates": [121.57569951109419, 25.12886604835042]}, "properties": {"point_id": 567, "map_class": 5}}, {"type": "Feature", "geometry": {"type": "Point", "coordinates": [121.50993306546013, 25.039554318189907]}, "properties": {"point_id": 563, "map_class": 5}}, {"type": "Feature", "geometry": {"type": "Point", "coordinates": [121.50425280758274, 25.04211566185748]}, "properties": {"point_id": 190, "map_class": 2}}, {"type": "Feature", "geometry": {"type": "Point", "coordinates": [121.57126449108397, 24.989683265476405]}, "properties": {"point_id": 476, "map_class": 4}}, {"type": "Feature", "geometry": {"type": "Point", "coordinates": [121.52851456709448, 25.06872295110442]}, "properties": {"point_id": 511, "map_class": 4}}, {"type": "Feature", "geometry": {"type": "Point", "coordinates": [121.54053599078998, 25.041393071616554]}, "properties": {"point_id": 59, "map_class": 1}}, {"type": "Feature", "geometry": {"type": "Point", "coordinates": [121.5594833900866, 25.141530599312734]}, "properties": {"point_id": 475, "map_class": 4}}, {"type": "Feature", "geometry": {"type": "Point", "coordinates": [121.57759838480227, 24.99886354611801]}, "properties": {"point_id": 561, "map_class": 5}}, {"type": "Feature", "geometry": {"type": "Point", "coordinates": [121.55944942674462, 25.093675981492233]}, "properties": {"point_id": 253, "map_class": 3}}, {"type": "Feature", "geometry": {"type": "Point", "coordinates": [121.56710787014028, 25.049055705687874]}, "properties": {"point_id": 22, "map_class": 1}}, {"type": "Feature", "geometry": {"type": "Point", "coordinates": [121.50807946657876, 25.159711675655206]}, "properties": {"point_id": 314, "map_class": 3}}, {"type": "Feature", "geometry": {"type": "Point", "coordinates": [121.51834553081473, 25.147535386902305]}, "properties": {"point_id": 460, "map_class": 4}}, {"type": "Feature", "geometry": {"type": "Point", "coordinates": [121.51804931459026, 25.073404236315827]}, "properties": {"point_id": 161, "map_class": 2}}, {"type": "Feature", "geometry": {"type": "Point", "coordinates": [121.58376473849103, 25.01409161021306]}, "properties": {"point_id": 277, "map_class": 3}}, {"type": "Feature", "geometry": {"type": "Point", "coordinates": [121.50998597784123, 25.108897812118837]}, "properties": {"point_id": 192, "map_class": 2}}, {"type": "Feature", "geometry": {"type": "Point", "coordinates": [121.53683498866081, 25.160901570504368]}, "properties": {"point_id": 386, "map_class": 3}}, {"type": "Feature", "geometry": {"type": "Point", "coordinates": [121.5829822893899, 25.1079881990128]}, "properties": {"point_id": 414, "map_class": 3}}, {"type": "Feature", "geometry": {"type": "Point", "coordinates": [121.53110652474692, 25.15876817397301]}, "properties": {"point_id": 492, "map_class": 4}}, {"type": "Feature", "geometry": {"type": "Point", "coordinates": [121.56213382757046, 25.19464722443949]}, "properties": {"point_id": 344, "map_class": 3}}, {"type": "Feature", "geometry": {"type": "Point", "coordinates": [121.5912947625432, 25.109512081704988]}, "properties": {"point_id": 309, "map_class": 3}}, {"type": "Feature", "geometry": {"type": "Point", "coordinates": [121.54702788624537, 25.011931282886575]}, "properties": {"point_id": 131, "map_class": 2}}, {"type": "Feature", "geometry": {"type": "Point", "coordinates": [121.57364892656669, 25.049118667998385]}, "properties": {"point_id": 100, "map_class": 2}}, {"type": "Feature", "geometry": {"type": "Point", "coordinates": [121.51920657679045, 25.16659510841404]}, "properties": {"point_id": 373, "map_class": 3}}, {"type": "Feature", "geometry": {"type": "Point", "coordinates": [121.57769159018345, 25.059541051194834]}, "properties": {"point_id": 88, "map_class": 2}}, {"type": "Feature", "geometry": {"type": "Point", "coordinates": [121.46299805964578, 25.123496332985518]}, "properties": {"point_id": 459, "map_class": 4}}, {"type": "Feature", "geometry": {"type": "Point", "coordinates": [121.48095270910352, 25.139211150258884]}, "properties": {"point_id": 331, "map_class": 3}}, {"type": "Feature", "geometry": {"type": "Point", "coordinates": [121.48606757367646, 25.150730201672868]}, "properties": {"point_id": 215, "map_class": 3}}, {"type": "Feature", "geometry": {"type": "Point", "coordinates": [121.56505301055216, 25.08930601118677]}, "properties": {"point_id": 467, "map_class": 4}}, {"type": "Feature", "geometry": {"type": "Point", "coordinates": [121.52599180444905, 25.10553648185347]}, "properties": {"point_id": 122, "map_class": 2}}, {"type": "Feature", "geometry": {"type": "Point", "coordinates": [121.55888785632332, 25.073896692431408]}, "properties": {"point_id": 21, "map_class": 1}}, {"type": "Feature", "geometry": {"type": "Point", "coordinates": [121.46769340376298, 25.10485518869916]}, "properties": {"point_id": 72, "map_class": 1}}, {"type": "Feature", "geometry": {"type": "Point", "coordinates": [121.51251040184496, 25.113347369240355]}, "properties": {"point_id": 107, "map_class": 2}}, {"type": "Feature", "geometry": {"type": "Point", "coordinates": [121.51363795328417, 25.15128037557055]}, "properties": {"point_id": 271, "map_class": 3}}, {"type": "Feature", "geometry": {"type": "Point", "coordinates": [121.5311676948447, 24.9957938185774]}, "properties": {"point_id": 436, "map_class": 3}}, {"type": "Feature", "geometry": {"type": "Point", "coordinates": [121.52249471624508, 25.058189422886937]}, "properties": {"point_id": 103, "map_class": 2}}]}