{
  "type": "FeatureCollection",
  "columns": {
    "Class": "String",
    "Id": "Integer",
    "system:index": "String"
  },
  "version": 1613642913900532,
  "id": "users/amanjmi01/ROI_TAIPEI_01",
  "properties": {
    "system:asset_size": 15196
  },
  "features": [
    {
      "type": "Feature",
      "geometry": {
        "type": "MultiPolygon",
        "coordinates": [
          [
            [
              [
                121.61301267290055,
                25.064532415145795
              ],
              [
                121.61305776807576,
                25.064026369927074
              ],
              [
                121.61441940758748,
                25.064151113201685
              ],
              [
                121.61441879820063,
                25.064639607987527
              ],
              [
                121.61301267290055,
                25.064532415145795
              ]
            ]
          ],
          [
            [
              [
                121.58410315880894,
                24.993842802626233
              ],
              [
                121.58448691297242,
                24.99382859661283
              ],
              [
                121.58447977256186,
                24.99402125635525
              ],
              [
                121.58410089476875,
                24.99403552859271
              ],
              [
                121.58410315880894,
                24.993842802626233
              ]
            ]
          ],
          [
            [
              [
                121.60498135461775,
                25.081098794348648
              ],
              [
                121.60507233488691,
                25.080449793255475
              ],
              [
                121.60646898170776,
                25.08054357231036
              ],
              [
                121.60628336674957,
                25.0812857898256
              ],
              [
                121.60498135461775,
                25.081098794348648
              ]
            ]
          ],
          [
            [
              [
                121.59530699414158,
                25.047352255261284
              ],
              [
                121.59534495661147,
                25.047043375423712
              ],
              [
                121.59590594640416,
                25.0470307690035
              ],
              [
                121.5959668079273,
                25.04730023220395
              ],
              [
                121.59530699414158,
                25.047352255261284
              ]
            ]
          ],
          [
            [
              [
                121.58644206245485,
                25.054990606797038
              ],
              [
                121.58659017979164,
                25.05451696603552
              ],
              [
                121.58780463019596,
                25.055021467137117
              ],
              [
                121.58765651443873,
                25.055495186191987
              ],
              [
                121.58644206245485,
                25.054990606797038
              ]
            ]
          ],
          [
            [
              [
                121.56350157947014,
                24.980356215148124
              ],
              [
                121.56357125480999,
                24.98028074522232
              ],
              [
                121.56386484880606,
                24.98040902802662
              ],
              [
                121.56383436592853,
                24.98048944531457
              ],
              [
                121.56350157947014,
                24.980356215148124
              ]
            ]
          ],
          [
            [
              [
                121.58315434786695,
                25.081160901059643
              ],
              [
                121.5832413399481,
                25.080444633235544
              ],
              [
                121.58455997153779,
                25.080891974913175
              ],
              [
                121.58452888464504,
                25.081460813765062
              ],
              [
                121.58315434786695,
                25.081160901059643
              ]
            ]
          ],
          [
            [
              [
                121.57057654471234,
                25.060284307450505
              ],
              [
                121.57069254693725,
                25.05919633853267
              ],
              [
                121.57132646391898,
                25.059265196846585
              ],
              [
                121.5712597543159,
                25.060353676718627
              ],
              [
                121.57057654471234,
                25.060284307450505
              ]
            ]
          ],
          [
            [
              [
                121.53137532919912,
                24.996213523793642
              ],
              [
                121.53147717088574,
                24.995918719561907
              ],
              [
                121.53180090313926,
                24.99598917650807
              ],
              [
                121.53169392175306,
                24.996301864722366
              ],
              [
                121.53137532919912,
                24.996213523793642
              ]
            ]
          ],
          [
            [
              [
                121.53206765922232,
                25.077307344531707
              ],
              [
                121.53213961879081,
                25.07664028535907
              ],
              [
                121.53348724066205,
                25.07670287101211
              ],
              [
                121.53336649634068,
                25.07733811362318
              ],
              [
                121.53206765922232,
                25.077307344531707
              ]
            ]
          ],
          [
            [
              [
                121.51425000272994,
                25.082866875389723
              ],
              [
                121.5143106463717,
                25.082329583594127
              ],
              [
                121.51509761670074,
                25.08236441877941
              ],
              [
                121.51508071327609,
                25.08295131276524
              ],
              [
                121.51425000272994,
                25.082866875389723
              ]
            ]
          ],
          [
            [
              [
                121.50705723038585,
                25.073759184669587
              ],
              [
                121.5070774462036,
                25.072903342486125
              ],
              [
                121.50835643798699,
                25.07294307068276
              ],
              [
                121.5084088939475,
                25.073889313133474
              ],
              [
                121.50705723038585,
                25.073759184669587
              ]
            ]
          ],
          [
            [
              [
                121.46049669853267,
                25.109048223351873
              ],
              [
                121.46068847768365,
                25.10709620849728
              ],
              [
                121.46477826651393,
                25.107143062020924
              ],
              [
                121.46387606199474,
                25.109621115226922
              ],
              [
                121.46049669853267,
                25.109048223351873
              ]
            ]
          ]
        ]
      },
      "id": "00000000000000000000",
      "properties": {
        "Class": "Water",
        "Id": 1
      }
    },
    {
      "type": "Feature",
      "geometry": {
        "type": "MultiPolygon",
        "coordinates": [
          [
            [
              [
                121.61856020266795,
                25.070948575744985
              ],
              [
                121.61907702973204,
                25.070939937248507
              ],
              [
                121.61909087095005,
                25.07145993730159
              ],
              [
                121.61857404394894,
                25.07147310763732
              ],
              [
                121.61856020266795,
                25.070948575744985
              ]
            ]
          ],
          [
            [
              [
                121.60050904049484,
                25.05587684862344
              ],
              [
                121.6012817478917,
                25.05586169188432
              ],
              [
                121.60129419823267,
                25.05649375506772
              ],
              [
                121.60052157798634,
                25.056508894932936
              ],
              [
                121.60050904049484,
                25.05587684862344
              ]
            ]
          ],
          [
            [
              [
                121.57948781942946,
                25.038923602867424
              ],
              [
                121.57950018507218,
                25.03827382657706
              ],
              [
                121.58035602361835,
                25.038290975645705
              ],
              [
                121.5803436580685,
                25.038940747896753
              ],
              [
                121.57948781942946,
                25.038923602867424
              ]
            ]
          ],
          [
            [
              [
                121.55991150004378,
                24.984610821561265
              ],
              [
                121.56000408405345,
                24.98384529715069
              ],
              [
                121.56150666935773,
                24.98402565404627
              ],
              [
                121.56141417366217,
                24.984791150541554
              ],
              [
                121.55991150004378,
                24.984610821561265
              ]
            ]
          ],
          [
            [
              [
                121.58996965828574,
                25.086380116838157
              ],
              [
                121.58997914934947,
                25.085985735190505
              ],
              [
                121.59063359546772,
                25.085996480471664
              ],
              [
                121.59062410445857,
                25.08639077935471
              ],
              [
                121.58996965828574,
                25.086380116838157
              ]
            ]
          ],
          [
            [
              [
                121.56141783168543,
                24.995462796619197
              ],
              [
                121.56149717592349,
                24.99456273051081
              ],
              [
                121.56249441768256,
                24.994653008646093
              ],
              [
                121.56241019681573,
                24.99555308303954
              ],
              [
                121.56141783168543,
                24.995462796619197
              ]
            ]
          ],
          [
            [
              [
                121.56201870396663,
                25.006794588218288
              ],
              [
                121.56283548107469,
                25.006762133878265
              ],
              [
                121.56286082563233,
                25.007546730337776
              ],
              [
                121.56204892604305,
                25.007574723405668
              ],
              [
                121.56201870396663,
                25.006794588218288
              ]
            ]
          ],
          [
            [
              [
                121.55715685190214,
                25.020897065676596
              ],
              [
                121.5585151533653,
                25.020838507451856
              ],
              [
                121.55855382487296,
                25.021739748853793
              ],
              [
                121.55719543677061,
                25.021798336962004
              ],
              [
                121.55715685190214,
                25.020897065676596
              ]
            ]
          ],
          [
            [
              [
                121.55354540729552,
                25.028947427355654
              ],
              [
                121.55452921782316,
                25.028948029074343
              ],
              [
                121.55452616928658,
                25.02962924764567
              ],
              [
                121.55354235873268,
                25.029628650851215
              ],
              [
                121.55354540729552,
                25.028947427355654
              ]
            ]
          ],
          [
            [
              [
                121.54050334727704,
                25.002421247745072
              ],
              [
                121.54058000557309,
                25.00176316937992
              ],
              [
                121.54163109016616,
                25.001881045174365
              ],
              [
                121.54155931078625,
                25.002543638414977
              ],
              [
                121.54050334727704,
                25.002421247745072
              ]
            ]
          ],
          [
            [
              [
                121.53932985915493,
                25.042567889920004
              ],
              [
                121.54044167215609,
                25.042569902692655
              ],
              [
                121.54044428550935,
                25.04318395335802
              ],
              [
                121.53932742000147,
                25.043186453499267
              ],
              [
                121.53932985915493,
                25.042567889920004
              ]
            ]
          ],
          [
            [
              [
                121.5485163003696,
                25.098399718805023
              ],
              [
                121.54910696209713,
                25.098400984843078
              ],
              [
                121.54910722341268,
                25.098790905407323
              ],
              [
                121.54851664879209,
                25.09878962052842
              ],
              [
                121.5485163003696,
                25.098399718805023
              ]
            ]
          ],
          [
            [
              [
                121.52604972787388,
                25.036538516688953
              ],
              [
                121.52728564419651,
                25.03644767998799
              ],
              [
                121.52736161436876,
                25.037501748018382
              ],
              [
                121.52612569886557,
                25.03758806168342
              ],
              [
                121.52604972787388,
                25.036538516688953
              ]
            ]
          ],
          [
            [
              [
                121.52832709329368,
                25.058818280261107
              ],
              [
                121.53027379536636,
                25.05855520555766
              ],
              [
                121.53040917901046,
                25.059582895304974
              ],
              [
                121.52846735800834,
                25.059846052028913
              ],
              [
                121.52832709329368,
                25.058818280261107
              ]
            ]
          ],
          [
            [
              [
                121.54125921325506,
                25.137132718833243
              ],
              [
                121.54220941777454,
                25.13713307419092
              ],
              [
                121.542211943977,
                25.13775162035001
              ],
              [
                121.5412617394785,
                25.137751188426122
              ],
              [
                121.54125921325506,
                25.137132718833243
              ]
            ]
          ],
          [
            [
              [
                121.5144668733069,
                25.05265662148745
              ],
              [
                121.51451828089664,
                25.052065541086307
              ],
              [
                121.51566344433402,
                25.052166631310843
              ],
              [
                121.51561212438811,
                25.052753234183722
              ],
              [
                121.5144668733069,
                25.05265662148745
              ]
            ]
          ],
          [
            [
              [
                121.52794140800354,
                25.11451095816665
              ],
              [
                121.52798766939782,
                25.113525422653968
              ],
              [
                121.52948823601864,
                25.113594050517218
              ],
              [
                121.52944188811018,
                25.11458412850751
              ],
              [
                121.52794140800354,
                25.11451095816665
              ]
            ]
          ],
          [
            [
              [
                121.5283505288387,
                25.129255888750638
              ],
              [
                121.52951759549232,
                25.129236117042918
              ],
              [
                121.52953075062494,
                25.12978302852136
              ],
              [
                121.52836368410537,
                25.129802805046154
              ],
              [
                121.5283505288387,
                25.129255888750638
              ]
            ]
          ],
          [
            [
              [
                121.49860470262992,
                25.036877792916194
              ],
              [
                121.49994862284046,
                25.036801682929763
              ],
              [
                121.49998957982999,
                25.037478895066403
              ],
              [
                121.49864574724205,
                25.037550457496266
              ],
              [
                121.49860470262992,
                25.036877792916194
              ]
            ]
          ],
          [
            [
              [
                121.52837344165317,
                25.154856488380346
              ],
              [
                121.5289696088235,
                25.15483100914029
              ],
              [
                121.52898058600665,
                25.155144926555717
              ],
              [
                121.52838450601443,
                25.15517030572135
              ],
              [
                121.52837344165317,
                25.154856488380346
              ]
            ]
          ],
          [
            [
              [
                121.51287828029919,
                25.11165354777129
              ],
              [
                121.51373522753738,
                25.111621793252787
              ],
              [
                121.51376406825328,
                25.112491547663492
              ],
              [
                121.51291217492766,
                25.112518879337134
              ],
              [
                121.51287828029919,
                25.11165354777129
              ]
            ]
          ],
          [
            [
              [
                121.50959176077923,
                25.120848657976705
              ],
              [
                121.51027603169481,
                25.120851090094686
              ],
              [
                121.51027672877248,
                25.12119615671227
              ],
              [
                121.50959254499628,
                25.121193786753594
              ],
              [
                121.50959176077923,
                25.120848657976705
              ]
            ]
          ],
          [
            [
              [
                121.50688025469154,
                25.11752720001442
              ],
              [
                121.5077174666963,
                25.117499789474884
              ],
              [
                121.50773663675814,
                25.117948172813136
              ],
              [
                121.5068994248932,
                25.11798011929989
              ],
              [
                121.50688025469154,
                25.11752720001442
              ]
            ]
          ],
          [
            [
              [
                121.50067739364492,
                25.140532597197684
              ],
              [
                121.50069787201161,
                25.140066694782853
              ],
              [
                121.50155403875647,
                25.14011122945538
              ],
              [
                121.50153356054238,
                25.140577129048758
              ],
              [
                121.50067739364492,
                25.140532597197684
              ]
            ]
          ],
          [
            [
              [
                121.4946377719142,
                25.144814188500963
              ],
              [
                121.49466827321088,
                25.14433498032436
              ],
              [
                121.49572605317223,
                25.14440399715274
              ],
              [
                121.49569546501046,
                25.144887755533517
              ],
              [
                121.4946377719142,
                25.144814188500963
              ]
            ]
          ]
        ]
      },
      "id": "00000000000000000001",
      "properties": {
        "Class": "Builtup",
        "Id": 2
      }
    },
    {
      "type": "Feature",
      "geometry": {
        "type": "MultiPolygon",
        "coordinates": [
          [
            [
              [
                121.60978483912193,
                24.971504482865885
              ],
              [
                121.61044944416155,
                24.971429990802143
              ],
              [
                121.61050751203572,
                24.97195049010781
              ],
              [
                121.60984778262677,
                24.972029500478822
              ],
              [
                121.60978483912193,
                24.971504482865885
              ]
            ]
          ],
          [
            [
              [
                121.60514311661537,
                24.972814679082003
              ],
              [
                121.60605761606588,
                24.972818752717313
              ],
              [
                121.60605970554593,
                24.973504489819348
              ],
              [
                121.60514024355714,
                24.973504826105554
              ],
              [
                121.60514311661537,
                24.972814679082003
              ]
            ]
          ],
          [
            [
              [
                121.59364699439882,
                24.97627419846987
              ],
              [
                121.59370942441036,
                24.97553971239087
              ],
              [
                121.59460355424883,
                24.97561535600507
              ],
              [
                121.59454103765735,
                24.976349858136988
              ],
              [
                121.59364699439882,
                24.97627419846987
              ]
            ]
          ],
          [
            [
              [
                121.59299961841101,
                24.98649605626352
              ],
              [
                121.59381129757743,
                24.986472341258
              ],
              [
                121.59382609965397,
                24.986902741866995
              ],
              [
                121.59301433352144,
                24.986930930599254
              ],
              [
                121.59299961841101,
                24.98649605626352
              ]
            ]
          ],
          [
            [
              [
                121.60309391115521,
                25.040102084685955
              ],
              [
                121.60439324595357,
                25.040051569490963
              ],
              [
                121.60440430294692,
                25.040378883774924
              ],
              [
                121.60310984385492,
                25.040429465398397
              ],
              [
                121.60309391115521,
                25.040102084685955
              ]
            ]
          ],
          [
            [
              [
                121.59371656424216,
                25.014663359368473
              ],
              [
                121.59480947564793,
                25.014584110487043
              ],
              [
                121.59486833514215,
                25.01545866556797
              ],
              [
                121.59377551137274,
                25.01553790138875
              ],
              [
                121.59371656424216,
                25.014663359368473
              ]
            ]
          ],
          [
            [
              [
                121.59903700749354,
                25.033869749198796
              ],
              [
                121.60020840148272,
                25.033822504426684
              ],
              [
                121.6002356531838,
                25.0344547543591
              ],
              [
                121.59906425947528,
                25.03450645472687
              ],
              [
                121.59903700749354,
                25.033869749198796
              ]
            ]
          ],
          [
            [
              [
                121.60560210850069,
                25.06669946158139
              ],
              [
                121.60656666450494,
                25.066699567443457
              ],
              [
                121.60656840573053,
                25.066977442733094
              ],
              [
                121.60559897426799,
                25.06697735764377
              ],
              [
                121.60560210850069,
                25.06669946158139
              ]
            ]
          ],
          [
            [
              [
                121.57770514995693,
                24.978870177866458
              ],
              [
                121.57782454117763,
                24.97832446041321
              ],
              [
                121.57863876681003,
                24.978502569293216
              ],
              [
                121.57851937644217,
                24.979048284277056
              ],
              [
                121.57770514995693,
                24.978870177866458
              ]
            ]
          ],
          [
            [
              [
                121.58968161718667,
                25.02814736915105
              ],
              [
                121.58983208130998,
                25.027463049322172
              ],
              [
                121.59074966435055,
                25.027668949033835
              ],
              [
                121.59059920143994,
                25.02835326537382
              ],
              [
                121.58968161718667,
                25.02814736915105
              ]
            ]
          ],
          [
            [
              [
                121.57911345331566,
                24.99580768593864
              ],
              [
                121.57977283844463,
                24.99577813228829
              ],
              [
                121.57979217059764,
                24.996235504143286
              ],
              [
                121.57912790897348,
                24.996260543335914
              ],
              [
                121.57911345331566,
                24.99580768593864
              ]
            ]
          ],
          [
            [
              [
                121.58452148300266,
                25.017417689542306
              ],
              [
                121.58466620679359,
                25.01680501951474
              ],
              [
                121.58583365606498,
                25.01708504992021
              ],
              [
                121.58568893375738,
                25.01769771609425
              ],
              [
                121.58452148300266,
                25.017417689542306
              ]
            ]
          ],
          [
            [
              [
                121.60371928970791,
                25.09039600670543
              ],
              [
                121.60376935118634,
                25.089889991205137
              ],
              [
                121.604762392236,
                25.089993478839922
              ],
              [
                121.60471233119482,
                25.090499490989753
              ],
              [
                121.60371928970791,
                25.09039600670543
              ]
            ]
          ],
          [
            [
              [
                121.5960446479395,
                25.075443427801677
              ],
              [
                121.597290603302,
                25.07536555675564
              ],
              [
                121.59733657539819,
                25.07608305475151
              ],
              [
                121.59609062053912,
                25.076156483167747
              ],
              [
                121.5960446479395,
                25.075443427801677
              ]
            ]
          ],
          [
            [
              [
                121.56257750625348,
                24.967631849133642
              ],
              [
                121.56333993251793,
                24.967603334949477
              ],
              [
                121.56336205447425,
                24.968239990083195
              ],
              [
                121.56259962835755,
                24.968264056231952
              ],
              [
                121.56257750625348,
                24.967631849133642
              ]
            ]
          ],
          [
            [
              [
                121.57307474672085,
                25.009384101073337
              ],
              [
                121.57309747639799,
                25.008698555135183
              ],
              [
                121.57401205911171,
                25.008720815642224
              ],
              [
                121.57399429352992,
                25.00940640218899
              ],
              [
                121.57307474672085,
                25.009384101073337
              ]
            ]
          ],
          [
            [
              [
                121.55845636219686,
                24.974875277193586
              ],
              [
                121.55856897991967,
                24.974495410595118
              ],
              [
                121.55907858896927,
                24.97464822236041
              ],
              [
                121.55896597174899,
                24.975028088043366
              ],
              [
                121.55845636219686,
                24.974875277193586
              ]
            ]
          ],
          [
            [
              [
                121.58560882265363,
                25.07227865431741
              ],
              [
                121.58667290250021,
                25.072176719704967
              ],
              [
                121.5867299375959,
                25.072777836795634
              ],
              [
                121.58566585828217,
                25.07287977650023
              ],
              [
                121.58560882265363,
                25.07227865431741
              ]
            ]
          ],
          [
            [
              [
                121.55459863733417,
                24.991932109293096
              ],
              [
                121.55551423928397,
                24.991855846636746
              ],
              [
                121.55555735392092,
                24.992371741041765
              ],
              [
                121.55464175231663,
                24.992448007431406
              ],
              [
                121.55459863733417,
                24.991932109293096
              ]
            ]
          ],
          [
            [
              [
                121.54894634003888,
                24.99250015921187
              ],
              [
                121.54917612358635,
                24.991780769402492
              ],
              [
                121.5499648577612,
                24.992034933547274
              ],
              [
                121.54973516290386,
                24.992754300340167
              ],
              [
                121.54894634003888,
                24.99250015921187
              ]
            ]
          ],
          [
            [
              [
                121.58215476141903,
                25.12943093803589
              ],
              [
                121.58222346748482,
                25.1285979249422
              ],
              [
                121.5837728696998,
                25.128724787492736
              ],
              [
                121.5837041645684,
                25.129557791828276
              ],
              [
                121.58215476141903,
                25.12943093803589
              ]
            ]
          ],
          [
            [
              [
                121.58515262367474,
                25.14143080778412
              ],
              [
                121.58624657513994,
                25.141356071210172
              ],
              [
                121.5863017818366,
                25.1421185653785
              ],
              [
                121.58520783090167,
                25.142197757804837
              ],
              [
                121.58515262367474,
                25.14143080778412
              ]
            ]
          ],
          [
            [
              [
                121.57524989533361,
                25.10756453295307
              ],
              [
                121.57634298393926,
                25.107539169413386
              ],
              [
                121.57635561117628,
                25.10814882292608
              ],
              [
                121.5752625226917,
                25.10817419147525
              ],
              [
                121.57524989533361,
                25.10756453295307
              ]
            ]
          ],
          [
            [
              [
                121.57081577739984,
                25.09265972720027
              ],
              [
                121.57083180170463,
                25.09212660542916
              ],
              [
                121.57164363880868,
                25.09215234180523
              ],
              [
                121.57162761461797,
                25.092685541381428
              ],
              [
                121.57081577739984,
                25.09265972720027
              ]
            ]
          ],
          [
            [
              [
                121.5710704242378,
                25.10293480609183
              ],
              [
                121.57229122324175,
                25.102933103192683
              ],
              [
                121.5722905265418,
                25.10341719808985
              ],
              [
                121.5710697275304,
                25.103418905344984
              ],
              [
                121.5710704242378,
                25.10293480609183
              ]
            ]
          ],
          [
            [
              [
                121.54123917768796,
                25.007578208549376
              ],
              [
                121.54136975725581,
                25.006938622616453
              ],
              [
                121.54200270453673,
                25.007065813733693
              ],
              [
                121.54187709100034,
                25.007705524885957
              ],
              [
                121.54123917768796,
                25.007578208549376
              ]
            ]
          ],
          [
            [
              [
                121.57889914361908,
                25.1491112000799
              ],
              [
                121.57891725676627,
                25.148398726207642
              ],
              [
                121.58001013604205,
                25.148422713103074
              ],
              [
                121.57999193598693,
                25.14913965136953
              ],
              [
                121.57889914361908,
                25.1491112000799
              ]
            ]
          ],
          [
            [
              [
                121.5801184654966,
                25.15564861155902
              ],
              [
                121.58015077273357,
                25.154990071557016
              ],
              [
                121.58121873511054,
                25.155040673848518
              ],
              [
                121.58118651525702,
                25.155699188303117
              ],
              [
                121.5801184654966,
                25.15564861155902
              ]
            ]
          ],
          [
            [
              [
                121.56511577198506,
                25.120961926299508
              ],
              [
                121.56518623017583,
                25.120411266008578
              ],
              [
                121.56620373217743,
                25.120537677535623
              ],
              [
                121.566133361707,
                25.121088232759963
              ],
              [
                121.56511577198506,
                25.120961926299508
              ]
            ]
          ],
          [
            [
              [
                121.55682935903967,
                25.095482415920255
              ],
              [
                121.55685993088652,
                25.09497623953165
              ],
              [
                121.55841403253686,
                25.095080994488175
              ],
              [
                121.55837849651387,
                25.09558712278551
              ],
              [
                121.55682935903967,
                25.095482415920255
              ]
            ]
          ],
          [
            [
              [
                121.57966180912382,
                25.187837734110023
              ],
              [
                121.58077993475489,
                25.18783955979649
              ],
              [
                121.58078324383317,
                25.18839983463022
              ],
              [
                121.57966511823457,
                25.188398013605052
              ],
              [
                121.57966180912382,
                25.187837734110023
              ]
            ]
          ],
          [
            [
              [
                121.55840506143407,
                25.114734113695572
              ],
              [
                121.55842178426589,
                25.11414715541771
              ],
              [
                121.55931244571931,
                25.114173766292826
              ],
              [
                121.5592958101153,
                25.1147562498196
              ],
              [
                121.55840506143407,
                25.114734113695572
              ]
            ]
          ],
          [
            [
              [
                121.57307640137182,
                25.173445729807792
              ],
              [
                121.57401711010993,
                25.173445884133294
              ],
              [
                121.57401606507585,
                25.173956756118784
              ],
              [
                121.57307535632908,
                25.17395668623086
              ],
              [
                121.57307640137182,
                25.173445729807792
              ]
            ]
          ],
          [
            [
              [
                121.54832179334015,
                25.089026139424305
              ],
              [
                121.54926235762636,
                25.08897707593151
              ],
              [
                121.54930355831141,
                25.089658725182613
              ],
              [
                121.54836290725842,
                25.08971226524136
              ],
              [
                121.54832179334015,
                25.089026139424305
              ]
            ]
          ],
          [
            [
              [
                121.55999093242544,
                25.161670597870444
              ],
              [
                121.56136522581554,
                25.16164808746626
              ],
              [
                121.56138090306406,
                25.162410167641376
              ],
              [
                121.56000660986265,
                25.162437135859964
              ],
              [
                121.55999093242544,
                25.161670597870444
              ]
            ]
          ],
          [
            [
              [
                121.56748241180578,
                25.19653616817045
              ],
              [
                121.56867938648035,
                25.196534374605633
              ],
              [
                121.56867938648035,
                25.197376910005616
              ],
              [
                121.56748241180578,
                25.197374261676156
              ],
              [
                121.56748241180578,
                25.19653616817045
              ]
            ]
          ],
          [
            [
              [
                121.53392918470053,
                25.086697409158734
              ],
              [
                121.53467768922215,
                25.08666000961105
              ],
              [
                121.53471732706959,
                25.087462625778876
              ],
              [
                121.5339688228071,
                25.087500029945833
              ],
              [
                121.53392918470053,
                25.086697409158734
              ]
            ]
          ],
          [
            [
              [
                121.54884486232066,
                25.16182616457562
              ],
              [
                121.54886925182339,
                25.161015219448853
              ],
              [
                121.55039524039809,
                25.161066029647632
              ],
              [
                121.55037085122092,
                25.16187696589313
              ],
              [
                121.54884486232066,
                25.16182616457562
              ]
            ]
          ],
          [
            [
              [
                121.55265618162109,
                25.176447494202304
              ],
              [
                121.5526891934531,
                25.17573520861262
              ],
              [
                121.55391001482339,
                25.175787542811
              ],
              [
                121.55387700334401,
                25.176499822273136
              ],
              [
                121.55265618162109,
                25.176447494202304
              ]
            ]
          ],
          [
            [
              [
                121.55710955711325,
                25.208132961328882
              ],
              [
                121.55719108181998,
                25.207479482528008
              ],
              [
                121.55836177367568,
                25.207634261542193
              ],
              [
                121.55827528520791,
                25.208283328310085
              ],
              [
                121.55710955711325,
                25.208132961328882
              ]
            ]
          ],
          [
            [
              [
                121.5299756720029,
                25.165794689935773
              ],
              [
                121.53001670539328,
                25.16524830465131
              ],
              [
                121.53105978492101,
                25.1653258629244
              ],
              [
                121.53101883902333,
                25.165867772893634
              ],
              [
                121.5299756720029,
                25.165794689935773
              ]
            ]
          ],
          [
            [
              [
                121.48707738382959,
                25.03976814361504
              ],
              [
                121.48721124968885,
                25.039280984396495
              ],
              [
                121.48786828825901,
                25.039462460142705
              ],
              [
                121.48773930366528,
                25.0399496860462
              ],
              [
                121.48707738382959,
                25.03976814361504
              ]
            ]
          ],
          [
            [
              [
                121.51561099168957,
                25.15760648602646
              ],
              [
                121.51565359857368,
                25.15693462533133
              ],
              [
                121.5168247153417,
                25.157009082051225
              ],
              [
                121.51677722962542,
                25.157680874557755
              ],
              [
                121.51561099168957,
                25.15760648602646
              ]
            ]
          ],
          [
            [
              [
                121.51006673393108,
                25.16566736024628
              ],
              [
                121.5101062060198,
                25.164856526457154
              ],
              [
                121.51165649859938,
                25.16493484013005
              ],
              [
                121.51161711417757,
                25.165741193035526
              ],
              [
                121.51006673393108,
                25.16566736024628
              ]
            ]
          ],
          [
            [
              [
                121.50149835543395,
                25.16724356038333
              ],
              [
                121.50153155629148,
                25.166535823977032
              ],
              [
                121.50300806976456,
                25.166613460771764
              ],
              [
                121.50296990233937,
                25.167316776548766
              ],
              [
                121.50149835543395,
                25.16724356038333
              ]
            ]
          ]
        ]
      },
      "id": "00000000000000000002",
      "properties": {
        "Class": "Forest",
        "Id": 3
      }
    },
    {
      "type": "Feature",
      "geometry": {
        "type": "MultiPolygon",
        "coordinates": [
          [
            [
              [
                121.49315513769925,
                25.117979909710762
              ],
              [
                121.49320489902368,
                25.117532245388524
              ],
              [
                121.49418312734137,
                25.117645321000204
              ],
              [
                121.49413336644037,
                25.11809298245989
              ],
              [
                121.49315513769925,
                25.117979909710762
              ]
            ]
          ],
          [
            [
              [
                121.49415733185073,
                25.131399746242643
              ],
              [
                121.49508849310861,
                25.131341976354147
              ],
              [
                121.49512980041506,
                25.13198779654014
              ],
              [
                121.4941937592649,
                25.132040973082443
              ],
              [
                121.49415733185073,
                25.131399746242643
              ]
            ]
          ],
          [
            [
              [
                121.48671343523736,
                25.129795584208686
              ],
              [
                121.4867361820581,
                25.129150419690113
              ],
              [
                121.48787787494602,
                25.129188963324044
              ],
              [
                121.48785512835101,
                25.129834122602258
              ],
              [
                121.48671343523736,
                25.129795584208686
              ]
            ]
          ],
          [
            [
              [
                121.48062348766999,
                25.12382623448184
              ],
              [
                121.48068048845843,
                25.123199365882883
              ],
              [
                121.4821114256091,
                25.123330578556192
              ],
              [
                121.48205442552924,
                25.12395744115079
              ],
              [
                121.48062348766999,
                25.12382623448184
              ]
            ]
          ],
          [
            [
              [
                121.47832957472227,
                25.11586540349697
              ],
              [
                121.47924064338135,
                25.115829947489793
              ],
              [
                121.47924718024898,
                25.116098911697353
              ],
              [
                121.4783361116416,
                25.116129916461528
              ],
              [
                121.47832957472227,
                25.11586540349697
              ]
            ]
          ],
          [
            [
              [
                121.47850075472756,
                25.1191299395804
              ],
              [
                121.4797755322413,
                25.119147554117248
              ],
              [
                121.47976794950961,
                25.11976142334119
              ],
              [
                121.47849317191192,
                25.11974389546538
              ],
              [
                121.47850075472756,
                25.1191299395804
              ]
            ]
          ],
          [
            [
              [
                121.47248803529824,
                25.111776239120655
              ],
              [
                121.4725404204581,
                25.11152133258217
              ],
              [
                121.47303637861152,
                25.111616078528606
              ],
              [
                121.47298399367718,
                25.11187098435102
              ],
              [
                121.47248803529824,
                25.111776239120655
              ]
            ]
          ],
          [
            [
              [
                121.46434381451357,
                25.110006936317863
              ],
              [
                121.4645321004932,
                25.10951139184716
              ],
              [
                121.46496323936074,
                25.109677227783145
              ],
              [
                121.46477486691593,
                25.110172710975636
              ],
              [
                121.46434381451357,
                25.110006936317863
              ]
            ]
          ],
          [
            [
              [
                121.46272750620317,
                25.115260788378386
              ],
              [
                121.46299233057047,
                25.1145554125183
              ],
              [
                121.46337448553095,
                25.114698264061865
              ],
              [
                121.4631097492116,
                25.115403618394815
              ],
              [
                121.46272750620317,
                25.115260788378386
              ]
            ]
          ]
        ]
      },
      "id": "00000000000000000003",
      "properties": {
        "Class": "Swamp",
        "Id": 5
      }
    },
    {
      "type": "Feature",
      "geometry": {
        "type": "MultiPolygon",
        "coordinates": [
          [
            [
              [
                121.57227093185419,
                24.983604961355297
              ],
              [
                121.57278500825562,
                24.9833767797056
              ],
              [
                121.57299584596736,
                24.983853879187436
              ],
              [
                121.57248185760365,
                24.984082042539313
              ],
              [
                121.57227093185419,
                24.983604961355297
              ]
            ]
          ],
          [
            [
              [
                121.56939552735855,
                24.982219224549354
              ],
              [
                121.56969076107087,
                24.981778369625104
              ],
              [
                121.57012995246285,
                24.98207389853173
              ],
              [
                121.5698347198871,
                24.98251030218772
              ],
              [
                121.56939552735855,
                24.982219224549354
              ]
            ]
          ],
          [
            [
              [
                121.57296432048547,
                24.994251843204477
              ],
              [
                121.57349676902952,
                24.994135919191613
              ],
              [
                121.57360405963573,
                24.994643427188517
              ],
              [
                121.57306673472628,
                24.99475483618841
              ],
              [
                121.57296432048547,
                24.994251843204477
              ]
            ]
          ],
          [
            [
              [
                121.57262938347404,
                24.993446345274073
              ],
              [
                121.5726651763217,
                24.992904348314692
              ],
              [
                121.57313692674639,
                24.992931313341924
              ],
              [
                121.57310609799848,
                24.99347335425054
              ],
              [
                121.57262938347404,
                24.993446345274073
              ]
            ]
          ],
          [
            [
              [
                121.5691083922453,
                25.068494595107623
              ],
              [
                121.56914531836648,
                25.06785851904294
              ],
              [
                121.57025170301934,
                25.067922900623994
              ],
              [
                121.57021477725627,
                25.06855905270007
              ],
              [
                121.5691083922453,
                25.068494595107623
              ]
            ]
          ],
          [
            [
              [
                121.56877213755891,
                25.073291476349905
              ],
              [
                121.5694069361091,
                25.073288702980694
              ],
              [
                121.56940885208238,
                25.073974437966555
              ],
              [
                121.56877396645267,
                25.073977235099207
              ],
              [
                121.56877213755891,
                25.073291476349905
              ]
            ]
          ],
          [
            [
              [
                121.56418082512576,
                25.074977217757823
              ],
              [
                121.56425999325627,
                25.07452076467719
              ],
              [
                121.56486895024196,
                25.07462526201417
              ],
              [
                121.56478978253382,
                25.07508616407011
              ],
              [
                121.56418082512576,
                25.074977217757823
              ]
            ]
          ],
          [
            [
              [
                121.56038460964173,
                25.075572333702006
              ],
              [
                121.56039453865131,
                25.075142231704994
              ],
              [
                121.5609898421662,
                25.075156912862177
              ],
              [
                121.56097991320837,
                25.075587093931134
              ],
              [
                121.56038460964173,
                25.075572333702006
              ]
            ]
          ],
          [
            [
              [
                121.55284824240991,
                25.068220418410384
              ],
              [
                121.55435475429879,
                25.06815889409498
              ],
              [
                121.55438149435699,
                25.068813532101107
              ],
              [
                121.55287498282067,
                25.068875063957076
              ],
              [
                121.55284824240991,
                25.068220418410384
              ]
            ]
          ],
          [
            [
              [
                121.55312174338427,
                25.07007413598811
              ],
              [
                121.55457433615506,
                25.069994138473515
              ],
              [
                121.5545982889302,
                25.070464995208958
              ],
              [
                121.55315066128344,
                25.070544960825202
              ],
              [
                121.55312174338427,
                25.07007413598811
              ]
            ]
          ],
          [
            [
              [
                121.54878336590853,
                25.069077087437748
              ],
              [
                121.54880522936764,
                25.068476765742485
              ],
              [
                121.54985284128999,
                25.068518343797066
              ],
              [
                121.54983106513592,
                25.069118721410206
              ],
              [
                121.54878336590853,
                25.069077087437748
              ]
            ]
          ],
          [
            [
              [
                121.55008837190776,
                25.074432333958296
              ],
              [
                121.55090044361167,
                25.074417846262076
              ],
              [
                121.55090558273633,
                25.074816829629064
              ],
              [
                121.55009351106897,
                25.074831238811594
              ],
              [
                121.55008837190776,
                25.074432333958296
              ]
            ]
          ],
          [
            [
              [
                121.54705805577679,
                25.07016726372941
              ],
              [
                121.54851995880585,
                25.07013671759549
              ],
              [
                121.5485326762262,
                25.070724033749713
              ],
              [
                121.54707077335975,
                25.070759037611996
              ],
              [
                121.54705805577679,
                25.07016726372941
              ]
            ]
          ],
          [
            [
              [
                121.54048505381242,
                25.070474754401143
              ],
              [
                121.54193197071768,
                25.070462083957803
              ],
              [
                121.5419364133603,
                25.070914841006488
              ],
              [
                121.54048958362297,
                25.07092749580738
              ],
              [
                121.54048505381242,
                25.070474754401143
              ]
            ]
          ],
          [
            [
              [
                121.54015951676506,
                25.07469349946604
              ],
              [
                121.54112401666454,
                25.07469409247052
              ],
              [
                121.54112741400351,
                25.07523644633392
              ],
              [
                121.5401629141327,
                25.075235857219663
              ],
              [
                121.54015951676506,
                25.07469349946604
              ]
            ]
          ],
          [
            [
              [
                121.5204323524705,
                25.036070399407098
              ],
              [
                121.52102298485221,
                25.035636999568872
              ],
              [
                121.52115367459781,
                25.0358176374439
              ],
              [
                121.52056304288938,
                25.036250957215156
              ],
              [
                121.5204323524705,
                25.036070399407098
              ]
            ]
          ],
          [
            [
              [
                121.50434636155298,
                25.11095367139452
              ],
              [
                121.50470563595489,
                25.11095283902383
              ],
              [
                121.50470642020532,
                25.111297987923333
              ],
              [
                121.50434705866667,
                25.111298841732523
              ],
              [
                121.50434636155298,
                25.11095367139452
              ]
            ]
          ],
          [
            [
              [
                121.49011756458704,
                25.107985916404836
              ],
              [
                121.49110723572225,
                25.107964604439573
              ],
              [
                121.49111568919913,
                25.10848010360265
              ],
              [
                121.49012601813668,
                25.108496966607824
              ],
              [
                121.49011756458704,
                25.107985916404836
              ]
            ]
          ]
        ]
      },
      "id": "00000000000000000004",
      "properties": {
        "Class": "Plantation",
        "Id": 4
      }
    }
  ]
}
